{
  "type": "FeatureCollection",
  "features": [
    {
      "type": "Feature",
      "properties": {
        "value": 0,
        "level": 0,
        "levelIndex": 0,
        "type": "filled_contour",
        "hasHoles": false,
        "polygonIndex": 0
      },
      "geometry": {
        "type": "Polygon",
        "coordinates": [
          [
            [
              116.3051282051282,
              39.9
            ],
            [
              116.31025641025641,
              39.90344827586207
            ],
            [
              116.3051282051282,
              39.90689655172414
            ],
            [
              116.3051282051282,
              39.91379310344828
            ],
            [
              116.3,
              39.91724137931034
            ],
            [
              116.3,
              39.9
            ],
            [
              116.5,
              39.9
            ],
            [
              116.5,
              39.91034482758621
            ],
            [
              116.48974358974358,
              39.90344827586207
            ],
            [
              116.48974358974358,
              39.9
            ],
            [
              116.5,
              39.9
            ],
            [
              116.5,
              40
            ],
            [
              116.48974358974358,
              40
            ],
            [
              116.4948717948718,
              39.99655172413793
            ],
            [
              116.4948717948718,
              39.99310344827586
            ],
            [
              116.5,
              39.98965517241379
            ],
            [
              116.5,
              40
            ],
            [
              116.3,
              40
            ],
            [
              116.3,
              39.98275862068966
            ],
            [
              116.3051282051282,
              39.98620689655172
            ],
            [
              116.3,
              39.98965517241379
            ],
            [
              116.3051282051282,
              39.99310344827586
            ],
            [
              116.3051282051282,
              39.99655172413793
            ],
            [
              116.31025641025641,
              40
            ],
            [
              116.3,
              40
            ],
            [
              116.3,
              39.9
            ],
            [
              116.3051282051282,
              39.9
            ]
          ]
        ]
      }
    },
    {
      "type": "Feature",
      "properties": {
        "value": 60,
        "level": 60,
        "levelIndex": 6,
        "type": "filled_contour",
        "hasHoles": true,
        "polygonIndex": 0
      },
      "geometry": {
        "type": "Polygon",
        "coordinates": [
          [
            [
              116.3960937028735,
              39.90689655172414
            ],
            [
              116.3974358974359,
              39.90706189213503
            ],
            [
              116.4025641025641,
              39.9070609520172
            ],
            [
              116.4076923076923,
              39.9082769577636
            ],
            [
              116.41164320651754,
              39.91034482758621
            ],
            [
              116.41282051282052,
              39.911177137443715
            ],
            [
              116.41794871794872,
              39.91170015594644
            ],
            [
              116.42307692307692,
              39.91285491078898
            ],
            [
              116.42438906055901,
              39.91379310344828
            ],
            [
              116.424965380423,
              39.91724137931034
            ],
            [
              116.42820512820512,
              39.91870424739499
            ],
            [
              116.43341084023953,
              39.9206392716183
            ],
            [
              116.43333333333334,
              39.921055061097796
            ],
            [
              116.43191275054636,
              39.92413793103448
            ],
            [
              116.43333333333334,
              39.92535442413913
            ],
            [
              116.43562953323138,
              39.92758620689655
            ],
            [
              116.4377855456629,
              39.93103448275862
            ],
            [
              116.43846153846154,
              39.9340979162872
            ],
            [
              116.43862528427702,
              39.93448275862069
            ],
            [
              116.44134589671269,
              39.93793103448276
            ],
            [
              116.44358974358974,
              39.94110408904392
            ],
            [
              116.44373054010586,
              39.94137931034483
            ],
            [
              116.4445426183669,
              39.9448275862069
            ],
            [
              116.44358974358974,
              39.94700605839415
            ],
            [
              116.44258651756334,
              39.94827586206897
            ],
            [
              116.44170127985598,
              39.95172413793103
            ],
            [
              116.44211505502426,
              39.9551724137931
            ],
            [
              116.44188694371623,
              39.95862068965517
            ],
            [
              116.43968985639125,
              39.96206896551724
            ],
            [
              116.43846153846154,
              39.96277845214786
            ],
            [
              116.43800302874557,
              39.96551724137931
            ],
            [
              116.4359767125485,
              39.96896551724138
            ],
            [
              116.4333130996056,
              39.97241379310345
            ],
            [
              116.43231246964841,
              39.97586206896552
            ],
            [
              116.431133398918,
              39.97931034482759
            ],
            [
              116.42820512820512,
              39.982384352479954
            ],
            [
              116.42590914283349,
              39.98275862068966
            ],
            [
              116.42332789629859,
              39.98620689655172
            ],
            [
              116.42307692307692,
              39.98637832417588
            ],
            [
              116.41794871794872,
              39.9889484974862
            ],
            [
              116.41282051282052,
              39.9889383909618
            ],
            [
              116.4076923076923,
              39.9894042414691
            ],
            [
              116.4072560142814,
              39.98965517241379
            ],
            [
              116.40614588659045,
              39.99310344827586
            ],
            [
              116.4025641025641,
              39.99355254996526
            ],
            [
              116.4002529556063,
              39.99310344827586
            ],
            [
              116.3974358974359,
              39.99255994789317
            ],
            [
              116.3923076923077,
              39.99144851185545
            ],
            [
              116.38717948717948,
              39.99037993209827
            ],
            [
              116.38487975378104,
              39.98965517241379
            ],
            [
              116.38205128205128,
              39.98787664618554
            ],
            [
              116.37973983100974,
              39.98620689655172
            ],
            [
              116.37692307692308,
              39.98542616277438
            ],
            [
              116.37208775234134,
              39.98275862068966
            ],
            [
              116.37179487179488,
              39.98160406421262
            ],
            [
              116.37022959033635,
              39.97931034482759
            ],
            [
              116.36666666666666,
              39.97793404330059
            ],
            [
              116.3653848245422,
              39.97586206896552
            ],
            [
              116.36146055161429,
              39.97241379310345
            ],
            [
              116.36153846153846,
              39.97220336120006
            ],
            [
              116.36283165339796,
              39.96896551724138
            ],
            [
              116.3622506725487,
              39.96551724137931
            ],
            [
              116.36153846153846,
              39.963148327904435
            ],
            [
              116.36075322152871,
              39.96206896551724
            ],
            [
              116.35641025641026,
              39.95913681733873
            ],
            [
              116.35621654769923,
              39.95862068965517
            ],
            [
              116.35641025641026,
              39.95701841588403
            ],
            [
              116.35715272651065,
              39.9551724137931
            ],
            [
              116.35641025641026,
              39.9536772327956
            ],
            [
              116.3560208864759,
              39.95172413793103
            ],
            [
              116.35641025641026,
              39.95104187808547
            ],
            [
              116.35796831633965,
              39.94827586206897
            ],
            [
              116.35812885968102,
              39.9448275862069
            ],
            [
              116.35877343335846,
              39.94137931034483
            ],
            [
              116.3598900351015,
              39.93793103448276
            ],
            [
              116.35929332796782,
              39.93448275862069
            ],
            [
              116.36153846153846,
              39.93326811554387
            ],
            [
              116.36401487312847,
              39.93103448275862
            ],
            [
              116.3637023472836,
              39.92758620689655
            ],
            [
              116.36470721546397,
              39.92413793103448
            ],
            [
              116.36666666666666,
              39.92123542071164
            ],
            [
              116.36753895155924,
              39.92068965517241
            ],
            [
              116.37179487179488,
              39.918754129287976
            ],
            [
              116.37487793463802,
              39.91724137931034
            ],
            [
              116.37692307692308,
              39.91600812877955
            ],
            [
              116.37870388243388,
              39.91379310344828
            ],
            [
              116.38205128205128,
              39.91169847940651
            ],
            [
              116.3851179568988,
              39.91034482758621
            ],
            [
              116.38717948717948,
              39.9094043682639
            ],
            [
              116.39161224071617,
              39.90689655172414
            ],
            [
              116.3923076923077,
              39.906498999818055
            ],
            [
              116.3960937028735,
              39.90689655172414
            ]
          ],
          [
            [
              116.38717948717948,
              39.920352756452836
            ],
            [
              116.38586179202883,
              39.92068965517241
            ],
            [
              116.38205128205128,
              39.92150138487522
            ],
            [
              116.38036734714771,
              39.92413793103448
            ],
            [
              116.37692307692308,
              39.926802096624215
            ],
            [
              116.37562660392648,
              39.92758620689655
            ],
            [
              116.3760287999004,
              39.93103448275862
            ],
            [
              116.37179487179488,
              39.93310739400264
            ],
            [
              116.37117460905502,
              39.93448275862069
            ],
            [
              116.36943213812454,
              39.93793103448276
            ],
            [
              116.36666666666666,
              39.94119498547269
            ],
            [
              116.36650543994638,
              39.94137931034483
            ],
            [
              116.36666666666666,
              39.941574897255265
            ],
            [
              116.36855967930302,
              39.9448275862069
            ],
            [
              116.3689193691059,
              39.94827586206897
            ],
            [
              116.3683373596214,
              39.95172413793103
            ],
            [
              116.36830160379971,
              39.9551724137931
            ],
            [
              116.36892562175083,
              39.95862068965517
            ],
            [
              116.36914957073375,
              39.96206896551724
            ],
            [
              116.37023552587925,
              39.96551724137931
            ],
            [
              116.37132763062394,
              39.96896551724138
            ],
            [
              116.37179487179488,
              39.96923170797548
            ],
            [
              116.37692307692308,
              39.97204113748371
            ],
            [
              116.37769984466559,
              39.97241379310345
            ],
            [
              116.38149960612868,
              39.97586206896552
            ],
            [
              116.38134759847347,
              39.97931034482759
            ],
            [
              116.38205128205128,
              39.97952582675739
            ],
            [
              116.38384682987042,
              39.97931034482759
            ],
            [
              116.38717948717948,
              39.978070104221295
            ],
            [
              116.3887594173448,
              39.97931034482759
            ],
            [
              116.39167834979958,
              39.98275862068966
            ],
            [
              116.3923076923077,
              39.98304977661872
            ],
            [
              116.3928244802233,
              39.98275862068966
            ],
            [
              116.3974358974359,
              39.980518976522575
            ],
            [
              116.4025641025641,
              39.98174424679887
            ],
            [
              116.4076923076923,
              39.981351022062334
            ],
            [
              116.41282051282052,
              39.97993634543557
            ],
            [
              116.41572763706125,
              39.97931034482759
            ],
            [
              116.41684020063045,
              39.97586206896552
            ],
            [
              116.41794871794872,
              39.9747970900974
            ],
            [
              116.42307692307692,
              39.97410531925502
            ],
            [
              116.42475170642447,
              39.97241379310345
            ],
            [
              116.42826856479883,
              39.96903508707919
            ],
            [
              116.43070984238557,
              39.96551724137931
            ],
            [
              116.4298247034792,
              39.96206896551724
            ],
            [
              116.43333333333334,
              39.959081804146024
            ],
            [
              116.43354762123442,
              39.95862068965517
            ],
            [
              116.43333333333334,
              39.95829713769493
            ],
            [
              116.43147495254965,
              39.9551724137931
            ],
            [
              116.43077345315047,
              39.95172413793103
            ],
            [
              116.4328829815016,
              39.94827586206897
            ],
            [
              116.43199513927111,
              39.9448275862069
            ],
            [
              116.43333333333334,
              39.94186990806429
            ],
            [
              116.43339057817673,
              39.94132116497738
            ],
            [
              116.43058527286044,
              39.93793103448276
            ],
            [
              116.42942952384197,
              39.93448275862069
            ],
            [
              116.42820512820512,
              39.933132923200766
            ],
            [
              116.42474263863275,
              39.93103448275862
            ],
            [
              116.42571466056043,
              39.92758620689655
            ],
            [
              116.42302265757807,
              39.924199130421755
            ],
            [
              116.41794871794872,
              39.922653945461285
            ],
            [
              116.41542876164473,
              39.92068965517241
            ],
            [
              116.41282051282052,
              39.919221477618535
            ],
            [
              116.4076923076923,
              39.91870024332556
            ],
            [
              116.4025641025641,
              39.918312183224316
            ],
            [
              116.3974358974359,
              39.91828357209358
            ],
            [
              116.3923076923077,
              39.918854657451476
            ],
            [
              116.38717948717948,
              39.920352756452836
            ]
          ]
        ]
      }
    },
    {
      "type": "Feature",
      "properties": {
        "value": 70,
        "level": 70,
        "levelIndex": 7,
        "type": "filled_contour",
        "hasHoles": true,
        "polygonIndex": 0
      },
      "geometry": {
        "type": "Polygon",
        "coordinates": [
          [
            [
              116.3923076923077,
              39.918854657451476
            ],
            [
              116.3974358974359,
              39.91828357209358
            ],
            [
              116.4025641025641,
              39.918312183224316
            ],
            [
              116.4076923076923,
              39.91870024332556
            ],
            [
              116.41282051282052,
              39.919221477618535
            ],
            [
              116.41542876164473,
              39.92068965517241
            ],
            [
              116.41794871794872,
              39.922653945461285
            ],
            [
              116.42302265757807,
              39.924199130421755
            ],
            [
              116.42571466056043,
              39.92758620689655
            ],
            [
              116.42474263863275,
              39.93103448275862
            ],
            [
              116.42820512820512,
              39.933132923200766
            ],
            [
              116.42942952384197,
              39.93448275862069
            ],
            [
              116.43058527286044,
              39.93793103448276
            ],
            [
              116.43339057817673,
              39.94132116497738
            ],
            [
              116.43333333333334,
              39.94186990806429
            ],
            [
              116.43199513927111,
              39.9448275862069
            ],
            [
              116.4328829815016,
              39.94827586206897
            ],
            [
              116.43077345315047,
              39.95172413793103
            ],
            [
              116.43147495254965,
              39.9551724137931
            ],
            [
              116.43333333333334,
              39.95829713769493
            ],
            [
              116.43354762123442,
              39.95862068965517
            ],
            [
              116.43333333333334,
              39.959081804146024
            ],
            [
              116.4298247034792,
              39.96206896551724
            ],
            [
              116.43070984238557,
              39.96551724137931
            ],
            [
              116.42826856479883,
              39.96903508707919
            ],
            [
              116.42475170642447,
              39.97241379310345
            ],
            [
              116.42307692307692,
              39.97410531925502
            ],
            [
              116.41794871794872,
              39.9747970900974
            ],
            [
              116.41684020063045,
              39.97586206896552
            ],
            [
              116.41572763706125,
              39.97931034482759
            ],
            [
              116.41282051282052,
              39.97993634543557
            ],
            [
              116.4076923076923,
              39.981351022062334
            ],
            [
              116.4025641025641,
              39.98174424679887
            ],
            [
              116.3974358974359,
              39.980518976522575
            ],
            [
              116.3928244802233,
              39.98275862068966
            ],
            [
              116.3923076923077,
              39.98304977661872
            ],
            [
              116.39167834979958,
              39.98275862068966
            ],
            [
              116.3887594173448,
              39.97931034482759
            ],
            [
              116.38717948717948,
              39.978070104221295
            ],
            [
              116.38384682987042,
              39.97931034482759
            ],
            [
              116.38205128205128,
              39.97952582675739
            ],
            [
              116.38134759847347,
              39.97931034482759
            ],
            [
              116.38149960612868,
              39.97586206896552
            ],
            [
              116.37769984466559,
              39.97241379310345
            ],
            [
              116.37692307692308,
              39.97204113748371
            ],
            [
              116.37179487179488,
              39.96923170797548
            ],
            [
              116.37132763062394,
              39.96896551724138
            ],
            [
              116.37023552587925,
              39.96551724137931
            ],
            [
              116.36914957073375,
              39.96206896551724
            ],
            [
              116.36892562175083,
              39.95862068965517
            ],
            [
              116.36830160379971,
              39.9551724137931
            ],
            [
              116.3683373596214,
              39.95172413793103
            ],
            [
              116.3689193691059,
              39.94827586206897
            ],
            [
              116.36855967930302,
              39.9448275862069
            ],
            [
              116.36666666666666,
              39.941574897255265
            ],
            [
              116.36650543994638,
              39.94137931034483
            ],
            [
              116.36666666666666,
              39.94119498547269
            ],
            [
              116.36943213812454,
              39.93793103448276
            ],
            [
              116.37117460905502,
              39.93448275862069
            ],
            [
              116.37179487179488,
              39.93310739400264
            ],
            [
              116.3760287999004,
              39.93103448275862
            ],
            [
              116.37562660392648,
              39.92758620689655
            ],
            [
              116.37692307692308,
              39.926802096624215
            ],
            [
              116.38036734714771,
              39.92413793103448
            ],
            [
              116.38205128205128,
              39.92150138487522
            ],
            [
              116.38586179202883,
              39.92068965517241
            ],
            [
              116.38717948717948,
              39.920352756452836
            ],
            [
              116.3923076923077,
              39.918854657451476
            ]
          ],
          [
            [
              116.3923076923077,
              39.92718878250659
            ],
            [
              116.39177291680087,
              39.92758620689655
            ],
            [
              116.3923076923077,
              39.93019941916896
            ],
            [
              116.39237895784129,
              39.931087937165614
            ],
            [
              116.39199363723316,
              39.93103448275862
            ],
            [
              116.38717948717948,
              39.92978216019121
            ],
            [
              116.38606085085473,
              39.93103448275862
            ],
            [
              116.38474484449205,
              39.93448275862069
            ],
            [
              116.3822166738755,
              39.93793103448276
            ],
            [
              116.38205128205128,
              39.9383920856195
            ],
            [
              116.37873038324545,
              39.94137931034483
            ],
            [
              116.37975053888894,
              39.9448275862069
            ],
            [
              116.3768764119178,
              39.948205711900265
            ],
            [
              116.37692307692308,
              39.94871889649217
            ],
            [
              116.37820814294756,
              39.95172413793103
            ],
            [
              116.37941188823469,
              39.9551724137931
            ],
            [
              116.3798373543945,
              39.95862068965517
            ],
            [
              116.3804272384983,
              39.96206896551724
            ],
            [
              116.38128125967074,
              39.96551724137931
            ],
            [
              116.38205128205128,
              39.966164950563545
            ],
            [
              116.38717948717948,
              39.96846155320608
            ],
            [
              116.38867024476956,
              39.96896551724138
            ],
            [
              116.3923076923077,
              39.96986542156464
            ],
            [
              116.396638129892,
              39.97241379310345
            ],
            [
              116.3974358974359,
              39.97267194510309
            ],
            [
              116.39841444323221,
              39.97241379310345
            ],
            [
              116.4025641025641,
              39.970366039530134
            ],
            [
              116.4076923076923,
              39.97076459747643
            ],
            [
              116.41282051282052,
              39.97021235389494
            ],
            [
              116.41537663372114,
              39.96896551724138
            ],
            [
              116.41794871794872,
              39.96574845287537
            ],
            [
              116.41807296326918,
              39.96551724137931
            ],
            [
              116.41945867191853,
              39.96206896551724
            ],
            [
              116.42261729393574,
              39.95862068965517
            ],
            [
              116.42029723536169,
              39.9551724137931
            ],
            [
              116.42014955420544,
              39.95172413793103
            ],
            [
              116.42307692307692,
              39.94896626996036
            ],
            [
              116.42373641078488,
              39.94827586206897
            ],
            [
              116.42312935169247,
              39.9448275862069
            ],
            [
              116.42307692307692,
              39.94388154914016
            ],
            [
              116.42266211734936,
              39.94137931034483
            ],
            [
              116.41794871794872,
              39.939314479405255
            ],
            [
              116.41681842091184,
              39.93793103448276
            ],
            [
              116.41578899749277,
              39.93448275862069
            ],
            [
              116.4140748567461,
              39.93103448275862
            ],
            [
              116.41282051282052,
              39.9296203372831
            ],
            [
              116.4083941446095,
              39.93103448275862
            ],
            [
              116.4076923076923,
              39.93122072001779
            ],
            [
              116.40730014905226,
              39.93103448275862
            ],
            [
              116.40429153805567,
              39.92758620689655
            ],
            [
              116.4025641025641,
              39.92664907676648
            ],
            [
              116.3974358974359,
              39.92731930896282
            ],
            [
              116.3923076923077,
              39.92718878250659
            ]
          ]
        ]
      }
    },
    {
      "type": "Feature",
      "properties": {
        "value": 80,
        "level": 80,
        "levelIndex": 8,
        "type": "filled_contour",
        "hasHoles": true,
        "polygonIndex": 0
      },
      "geometry": {
        "type": "Polygon",
        "coordinates": [
          [
            [
              116.3974358974359,
              39.92731930896282
            ],
            [
              116.4025641025641,
              39.92664907676648
            ],
            [
              116.40429153805567,
              39.92758620689655
            ],
            [
              116.40730014905226,
              39.93103448275862
            ],
            [
              116.4076923076923,
              39.93122072001779
            ],
            [
              116.4083941446095,
              39.93103448275862
            ],
            [
              116.41282051282052,
              39.9296203372831
            ],
            [
              116.4140748567461,
              39.93103448275862
            ],
            [
              116.41578899749277,
              39.93448275862069
            ],
            [
              116.41681842091184,
              39.93793103448276
            ],
            [
              116.41794871794872,
              39.939314479405255
            ],
            [
              116.42266211734936,
              39.94137931034483
            ],
            [
              116.42307692307692,
              39.94388154914016
            ],
            [
              116.42312935169247,
              39.9448275862069
            ],
            [
              116.42373641078488,
              39.94827586206897
            ],
            [
              116.42307692307692,
              39.94896626996036
            ],
            [
              116.42014955420544,
              39.95172413793103
            ],
            [
              116.42029723536169,
              39.9551724137931
            ],
            [
              116.42261729393574,
              39.95862068965517
            ],
            [
              116.41945867191853,
              39.96206896551724
            ],
            [
              116.41807296326918,
              39.96551724137931
            ],
            [
              116.41794871794872,
              39.96574845287537
            ],
            [
              116.41537663372114,
              39.96896551724138
            ],
            [
              116.41282051282052,
              39.97021235389494
            ],
            [
              116.4076923076923,
              39.97076459747643
            ],
            [
              116.4025641025641,
              39.970366039530134
            ],
            [
              116.39841444323221,
              39.97241379310345
            ],
            [
              116.3974358974359,
              39.97267194510309
            ],
            [
              116.396638129892,
              39.97241379310345
            ],
            [
              116.3923076923077,
              39.96986542156464
            ],
            [
              116.38867024476956,
              39.96896551724138
            ],
            [
              116.38717948717948,
              39.96846155320608
            ],
            [
              116.38205128205128,
              39.966164950563545
            ],
            [
              116.38128125967074,
              39.96551724137931
            ],
            [
              116.3804272384983,
              39.96206896551724
            ],
            [
              116.3798373543945,
              39.95862068965517
            ],
            [
              116.37941188823469,
              39.9551724137931
            ],
            [
              116.37820814294756,
              39.95172413793103
            ],
            [
              116.37692307692308,
              39.94871889649217
            ],
            [
              116.3768764119178,
              39.948205711900265
            ],
            [
              116.37975053888894,
              39.9448275862069
            ],
            [
              116.37873038324545,
              39.94137931034483
            ],
            [
              116.38205128205128,
              39.9383920856195
            ],
            [
              116.3822166738755,
              39.93793103448276
            ],
            [
              116.38474484449205,
              39.93448275862069
            ],
            [
              116.38606085085473,
              39.93103448275862
            ],
            [
              116.38717948717948,
              39.92978216019121
            ],
            [
              116.39199363723316,
              39.93103448275862
            ],
            [
              116.39237895784129,
              39.931087937165614
            ],
            [
              116.3923076923077,
              39.93019941916896
            ],
            [
              116.39177291680087,
              39.92758620689655
            ],
            [
              116.3923076923077,
              39.92718878250659
            ],
            [
              116.3974358974359,
              39.92731930896282
            ]
          ],
          [
            [
              116.3974358974359,
              39.93754806276443
            ],
            [
              116.39655088095806,
              39.93793103448276
            ],
            [
              116.39278112569963,
              39.94137931034483
            ],
            [
              116.3923076923077,
              39.941645010786964
            ],
            [
              116.3871880506383,
              39.94488227202658
            ],
            [
              116.3868906601294,
              39.94827586206897
            ],
            [
              116.3862801187887,
              39.95172413793103
            ],
            [
              116.38717948717948,
              39.95287028992448
            ],
            [
              116.38971173453517,
              39.9551724137931
            ],
            [
              116.3923076923077,
              39.95788518484654
            ],
            [
              116.39303971375077,
              39.95862068965517
            ],
            [
              116.39620038898066,
              39.96206896551724
            ],
            [
              116.3974358974359,
              39.962218540948385
            ],
            [
              116.39813941643934,
              39.96206896551724
            ],
            [
              116.4025641025641,
              39.961192168239094
            ],
            [
              116.4076923076923,
              39.960420917821665
            ],
            [
              116.40900169429881,
              39.95862068965517
            ],
            [
              116.41280594989041,
              39.9551724137931
            ],
            [
              116.41266975926358,
              39.95172413793103
            ],
            [
              116.41122089537319,
              39.94827586206897
            ],
            [
              116.41282051282052,
              39.94488438428548
            ],
            [
              116.41004754076462,
              39.94137931034483
            ],
            [
              116.4076923076923,
              39.939642349469224
            ],
            [
              116.4029032708333,
              39.93793103448276
            ],
            [
              116.4025641025641,
              39.937801364026356
            ],
            [
              116.3974358974359,
              39.93754806276443
            ]
          ]
        ]
      }
    },
    {
      "type": "Feature",
      "properties": {
        "value": 90,
        "level": 90,
        "levelIndex": 9,
        "type": "filled_contour",
        "hasHoles": false,
        "polygonIndex": 0
      },
      "geometry": {
        "type": "Polygon",
        "coordinates": [
          [
            [
              116.4025641025641,
              39.937801364026356
            ],
            [
              116.4029032708333,
              39.93793103448276
            ],
            [
              116.4076923076923,
              39.939642349469224
            ],
            [
              116.41004754076462,
              39.94137931034483
            ],
            [
              116.41282051282052,
              39.94488438428548
            ],
            [
              116.41122089537319,
              39.94827586206897
            ],
            [
              116.41266975926358,
              39.95172413793103
            ],
            [
              116.41280594989041,
              39.9551724137931
            ],
            [
              116.40900169429881,
              39.95862068965517
            ],
            [
              116.4076923076923,
              39.960420917821665
            ],
            [
              116.4025641025641,
              39.961192168239094
            ],
            [
              116.39813941643934,
              39.96206896551724
            ],
            [
              116.3974358974359,
              39.962218540948385
            ],
            [
              116.39620038898066,
              39.96206896551724
            ],
            [
              116.39303971375077,
              39.95862068965517
            ],
            [
              116.3923076923077,
              39.95788518484654
            ],
            [
              116.38971173453517,
              39.9551724137931
            ],
            [
              116.38717948717948,
              39.95287028992448
            ],
            [
              116.3862801187887,
              39.95172413793103
            ],
            [
              116.3868906601294,
              39.94827586206897
            ],
            [
              116.3871880506383,
              39.94488227202658
            ],
            [
              116.3923076923077,
              39.941645010786964
            ],
            [
              116.39278112569963,
              39.94137931034483
            ],
            [
              116.39655088095806,
              39.93793103448276
            ],
            [
              116.3974358974359,
              39.93754806276443
            ],
            [
              116.4025641025641,
              39.937801364026356
            ]
          ]
        ]
      }
    }
  ]
}