{
  "type": "FeatureCollection",
  "features": [
    {
      "type": "Feature",
      "properties": {
        "elevation": 0,
        "level": 0,
        "levelIndex": 0,
        "pathIndex": 0,
        "type": "linestring_edge",
        "closed": false
      },
      "geometry": {
        "type": "LineString",
        "coordinates": [
          [
            116.3051282051282,
            39.9
          ],
          [
            116.31025641025641,
            39.90344827586207
          ],
          [
            116.3051282051282,
            39.90689655172414
          ],
          [
            116.3051282051282,
            39.91034482758621
          ],
          [
            116.3051282051282,
            39.91379310344828
          ],
          [
            116.3,
            39.91724137931034
          ]
        ]
      }
    },
    {
      "type": "Feature",
      "properties": {
        "elevation": 0,
        "level": 0,
        "levelIndex": 0,
        "pathIndex": 1,
        "type": "linestring_edge",
        "closed": false
      },
      "geometry": {
        "type": "LineString",
        "coordinates": [
          [
            116.3,
            39.92413793103448
          ],
          [
            116.3,
            39.92758620689655
          ],
          [
            116.3,
            39.93103448275862
          ]
        ]
      }
    },
    {
      "type": "Feature",
      "properties": {
        "elevation": 0,
        "level": 0,
        "levelIndex": 0,
        "pathIndex": 2,
        "type": "linestring_edge",
        "closed": false
      },
      "geometry": {
        "type": "LineString",
        "coordinates": [
          [
            116.5,
            39.92413793103448
          ],
          [
            116.5,
            39.92068965517241
          ],
          [
            116.5,
            39.91724137931034
          ],
          [
            116.5,
            39.91379310344828
          ],
          [
            116.5,
            39.91034482758621
          ],
          [
            116.4948717948718,
            39.90689655172414
          ],
          [
            116.48974358974358,
            39.90344827586207
          ],
          [
            116.48974358974358,
            39.9
          ]
        ]
      }
    },
    {
      "type": "Feature",
      "properties": {
        "elevation": 0,
        "level": 0,
        "levelIndex": 0,
        "pathIndex": 3,
        "type": "linestring_edge",
        "closed": false
      },
      "geometry": {
        "type": "LineString",
        "coordinates": [
          [
            116.3,
            39.97241379310345
          ],
          [
            116.3,
            39.97586206896552
          ],
          [
            116.3,
            39.97931034482759
          ],
          [
            116.3,
            39.98275862068966
          ],
          [
            116.3051282051282,
            39.98620689655172
          ],
          [
            116.3,
            39.98965517241379
          ],
          [
            116.3051282051282,
            39.99310344827586
          ],
          [
            116.3051282051282,
            39.99655172413793
          ],
          [
            116.31025641025641,
            40
          ]
        ]
      }
    },
    {
      "type": "Feature",
      "properties": {
        "elevation": 0,
        "level": 0,
        "levelIndex": 0,
        "pathIndex": 4,
        "type": "linestring_edge",
        "closed": false
      },
      "geometry": {
        "type": "LineString",
        "coordinates": [
          [
            116.48974358974358,
            40
          ],
          [
            116.4948717948718,
            39.99655172413793
          ],
          [
            116.4948717948718,
            39.99310344827586
          ],
          [
            116.5,
            39.98965517241379
          ],
          [
            116.5,
            39.98620689655172
          ],
          [
            116.5,
            39.98275862068966
          ],
          [
            116.5,
            39.97931034482759
          ],
          [
            116.5,
            39.97586206896552
          ],
          [
            116.5,
            39.97241379310345
          ],
          [
            116.5,
            39.96896551724138
          ]
        ]
      }
    },
    {
      "type": "Feature",
      "properties": {
        "elevation": 10,
        "level": 10,
        "levelIndex": 1,
        "pathIndex": 0,
        "type": "linestring_edge",
        "closed": false
      },
      "geometry": {
        "type": "LineString",
        "coordinates": [
          [
            116.32173423661648,
            39.9
          ],
          [
            116.32051282051282,
            39.900826743267885
          ],
          [
            116.31849636034482,
            39.90344827586207
          ],
          [
            116.31904026754435,
            39.90689655172414
          ],
          [
            116.3172408060365,
            39.91034482758621
          ],
          [
            116.31538461538462,
            39.9119864181568
          ],
          [
            116.31369896793905,
            39.91379310344828
          ],
          [
            116.31538461538462,
            39.91685038418461
          ],
          [
            116.3155837687059,
            39.91724137931034
          ],
          [
            116.31538461538462,
            39.91756743253272
          ],
          [
            116.31231966317978,
            39.92068965517241
          ],
          [
            116.31263727801166,
            39.92413793103448
          ],
          [
            116.31159083723271,
            39.92758620689655
          ],
          [
            116.31025641025641,
            39.92968219151443
          ],
          [
            116.30851731017478,
            39.93103448275862
          ],
          [
            116.30813637751942,
            39.93448275862069
          ],
          [
            116.3092365009079,
            39.93793103448276
          ],
          [
            116.30798336019207,
            39.94137931034483
          ],
          [
            116.30624908217376,
            39.9448275862069
          ],
          [
            116.30920334994765,
            39.94827586206897
          ],
          [
            116.30751517191362,
            39.95172413793103
          ],
          [
            116.30867610590836,
            39.9551724137931
          ],
          [
            116.30659755814851,
            39.95862068965517
          ],
          [
            116.30843795614072,
            39.96206896551724
          ],
          [
            116.30886008339634,
            39.96551724137931
          ],
          [
            116.30948806099313,
            39.96896551724138
          ],
          [
            116.31025641025641,
            39.97084019005623
          ],
          [
            116.31094782916213,
            39.97241379310345
          ],
          [
            116.31302828608688,
            39.97586206896552
          ],
          [
            116.31409930193573,
            39.97931034482759
          ],
          [
            116.31243379700766,
            39.98275862068966
          ],
          [
            116.31352844383125,
            39.98620689655172
          ],
          [
            116.31538461538462,
            39.988120637081046
          ],
          [
            116.31697417698965,
            39.98965517241379
          ],
          [
            116.31938706409994,
            39.99310344827586
          ],
          [
            116.32051282051282,
            39.99563895135714
          ],
          [
            116.32093241710334,
            39.99655172413793
          ],
          [
            116.32190411371126,
            40
          ]
        ]
      }
    },
    {
      "type": "Feature",
      "properties": {
        "elevation": 10,
        "level": 10,
        "levelIndex": 1,
        "pathIndex": 1,
        "type": "linestring_edge",
        "closed": false
      },
      "geometry": {
        "type": "LineString",
        "coordinates": [
          [
            116.47689247590012,
            40
          ],
          [
            116.47828800524661,
            39.99655172413793
          ],
          [
            116.47948717948718,
            39.99534487275369
          ],
          [
            116.48239415255128,
            39.99310344827586
          ],
          [
            116.48267941192563,
            39.98965517241379
          ],
          [
            116.48461538461538,
            39.988783709928455
          ],
          [
            116.48729491587324,
            39.98620689655172
          ],
          [
            116.48461538461538,
            39.983363507178396
          ],
          [
            116.48429524331846,
            39.98275862068966
          ],
          [
            116.48461538461538,
            39.98230670404318
          ],
          [
            116.48854477842139,
            39.97931034482759
          ],
          [
            116.48878227799342,
            39.97586206896552
          ],
          [
            116.48974358974358,
            39.97399530134284
          ],
          [
            116.49072679539776,
            39.97241379310345
          ],
          [
            116.49110084726888,
            39.96896551724138
          ],
          [
            116.49015929807375,
            39.96551724137931
          ],
          [
            116.48974358974358,
            39.96264796802584
          ],
          [
            116.48971744750403,
            39.96199463950143
          ],
          [
            116.49133979284628,
            39.95862068965517
          ],
          [
            116.4912853052958,
            39.9551724137931
          ],
          [
            116.4905239866327,
            39.95172413793103
          ],
          [
            116.49478813899815,
            39.94827586206897
          ],
          [
            116.49257046360287,
            39.9448275862069
          ],
          [
            116.49300169361715,
            39.94137931034483
          ],
          [
            116.49312363089155,
            39.93793103448276
          ],
          [
            116.49240317271743,
            39.93448275862069
          ],
          [
            116.49135893275732,
            39.93103448275862
          ],
          [
            116.49048635445303,
            39.92758620689655
          ],
          [
            116.48974358974358,
            39.926112344368676
          ],
          [
            116.48819514880576,
            39.92413793103448
          ],
          [
            116.48813451222662,
            39.92068965517241
          ],
          [
            116.48663557703901,
            39.91724137931034
          ],
          [
            116.48576188410462,
            39.91379310344828
          ],
          [
            116.48461538461538,
            39.91318585013191
          ],
          [
            116.48236256869953,
            39.91034482758621
          ],
          [
            116.48335241186963,
            39.90689655172414
          ],
          [
            116.48140671994005,
            39.90344827586207
          ],
          [
            116.47987239382186,
            39.9
          ]
        ]
      }
    },
    {
      "type": "Feature",
      "properties": {
        "elevation": 20,
        "level": 20,
        "levelIndex": 2,
        "pathIndex": 0,
        "type": "linestring_edge",
        "closed": false
      },
      "geometry": {
        "type": "LineString",
        "coordinates": [
          [
            116.33571139364166,
            39.9
          ],
          [
            116.33330629025423,
            39.90344827586207
          ],
          [
            116.33192625736757,
            39.90689655172414
          ],
          [
            116.33076923076923,
            39.90784080407185
          ],
          [
            116.32836211902242,
            39.91034482758621
          ],
          [
            116.32564102564102,
            39.91296107207672
          ],
          [
            116.32482803528544,
            39.91379310344828
          ],
          [
            116.32524815924762,
            39.91724137931034
          ],
          [
            116.32141279181819,
            39.92068965517241
          ],
          [
            116.32208066273984,
            39.92413793103448
          ],
          [
            116.32147981393175,
            39.92758620689655
          ],
          [
            116.32051282051282,
            39.93065681839112
          ],
          [
            116.32037780204143,
            39.93103448275862
          ],
          [
            116.3204884341985,
            39.93448275862069
          ],
          [
            116.32008192624498,
            39.93793103448276
          ],
          [
            116.31711526607963,
            39.94137931034483
          ],
          [
            116.31893703517818,
            39.9448275862069
          ],
          [
            116.31733949171286,
            39.94827586206897
          ],
          [
            116.31709376857694,
            39.95172413793103
          ],
          [
            116.31827619119349,
            39.9551724137931
          ],
          [
            116.31739528733777,
            39.95862068965517
          ],
          [
            116.31807810414091,
            39.96206896551724
          ],
          [
            116.31750246384604,
            39.96551724137931
          ],
          [
            116.31773858972258,
            39.96896551724138
          ],
          [
            116.32051282051282,
            39.97070727135804
          ],
          [
            116.32184748553283,
            39.97241379310345
          ],
          [
            116.3223846840635,
            39.97586206896552
          ],
          [
            116.3247995390582,
            39.97931034482759
          ],
          [
            116.32564102564102,
            39.98038552381315
          ],
          [
            116.32650060142184,
            39.98275862068966
          ],
          [
            116.32564102564102,
            39.984134041513464
          ],
          [
            116.32444266736383,
            39.98620689655172
          ],
          [
            116.32564102564102,
            39.98791997987965
          ],
          [
            116.32699408976899,
            39.98965517241379
          ],
          [
            116.32992887408122,
            39.99310344827586
          ],
          [
            116.33076923076923,
            39.99405754575314
          ],
          [
            116.3331716775794,
            39.99655172413793
          ],
          [
            116.33428406405993,
            40
          ]
        ]
      }
    },
    {
      "type": "Feature",
      "properties": {
        "elevation": 20,
        "level": 20,
        "levelIndex": 2,
        "pathIndex": 1,
        "type": "linestring_edge",
        "closed": false
      },
      "geometry": {
        "type": "LineString",
        "coordinates": [
          [
            116.46404339110529,
            40
          ],
          [
            116.46923076923076,
            39.997605924948736
          ],
          [
            116.47019755131618,
            39.99655172413793
          ],
          [
            116.46928396810256,
            39.99310344827586
          ],
          [
            116.47439628001034,
            39.98970703903211
          ],
          [
            116.47459503844338,
            39.98620689655172
          ],
          [
            116.4773513968509,
            39.98275862068966
          ],
          [
            116.47944521469462,
            39.97931034482759
          ],
          [
            116.47626698280077,
            39.97586206896552
          ],
          [
            116.47948717948718,
            39.97358691663608
          ],
          [
            116.48045598312024,
            39.97241379310345
          ],
          [
            116.4813225955719,
            39.96896551724138
          ],
          [
            116.48005968036317,
            39.96551724137931
          ],
          [
            116.48174294451164,
            39.96206896551724
          ],
          [
            116.48195054266506,
            39.95862068965517
          ],
          [
            116.48239930446978,
            39.9551724137931
          ],
          [
            116.48038463549094,
            39.95172413793103
          ],
          [
            116.48129045046349,
            39.94827586206897
          ],
          [
            116.48232656128124,
            39.9448275862069
          ],
          [
            116.48036540508524,
            39.94137931034483
          ],
          [
            116.4794682681545,
            39.93802049336166
          ],
          [
            116.48154778367572,
            39.93448275862069
          ],
          [
            116.47948717948718,
            39.932758341111295
          ],
          [
            116.47811028046691,
            39.93103448275862
          ],
          [
            116.47749306222339,
            39.92758620689655
          ],
          [
            116.47715350696802,
            39.92413793103448
          ],
          [
            116.47729522729097,
            39.92068965517241
          ],
          [
            116.47435897435898,
            39.917250805100366
          ],
          [
            116.47312661525173,
            39.91379310344828
          ],
          [
            116.47101655928384,
            39.91034482758621
          ],
          [
            116.46984772296304,
            39.90689655172414
          ],
          [
            116.46987612152382,
            39.90344827586207
          ],
          [
            116.46923076923076,
            39.902505532398706
          ],
          [
            116.46665998805159,
            39.9
          ]
        ]
      }
    },
    {
      "type": "Feature",
      "properties": {
        "elevation": 30,
        "level": 30,
        "levelIndex": 3,
        "pathIndex": 0,
        "type": "linestring_edge",
        "closed": false
      },
      "geometry": {
        "type": "LineString",
        "coordinates": [
          [
            116.35018734507891,
            39.9
          ],
          [
            116.34615384615384,
            39.902003663025454
          ],
          [
            116.34348523395559,
            39.90344827586207
          ],
          [
            116.34102564102564,
            39.90534692752105
          ],
          [
            116.33989622187929,
            39.90689655172414
          ],
          [
            116.33796401603252,
            39.91034482758621
          ],
          [
            116.3359860819561,
            39.913887537347776
          ],
          [
            116.33426711547574,
            39.91724137931034
          ],
          [
            116.33283734387261,
            39.92068965517241
          ],
          [
            116.33242955762574,
            39.92413793103448
          ],
          [
            116.33076923076923,
            39.92617523529793
          ],
          [
            116.32922167586354,
            39.92758620689655
          ],
          [
            116.33076923076923,
            39.92951009968077
          ],
          [
            116.33175726429882,
            39.93103448275862
          ],
          [
            116.33076923076923,
            39.93315962065617
          ],
          [
            116.32929391567326,
            39.93448275862069
          ],
          [
            116.33032831893023,
            39.93793103448276
          ],
          [
            116.32991669625983,
            39.94137931034483
          ],
          [
            116.32949147621727,
            39.9448275862069
          ],
          [
            116.32592032288582,
            39.94827586206897
          ],
          [
            116.3271023234561,
            39.95172413793103
          ],
          [
            116.32798653052492,
            39.9551724137931
          ],
          [
            116.32742207406034,
            39.95862068965517
          ],
          [
            116.32876035034394,
            39.96206896551724
          ],
          [
            116.32919099939306,
            39.96551724137931
          ],
          [
            116.3295216407581,
            39.96896551724138
          ],
          [
            116.33076923076923,
            39.96980785691389
          ],
          [
            116.33192130858859,
            39.97241379310345
          ],
          [
            116.33250980798668,
            39.97586206896552
          ],
          [
            116.33400803567875,
            39.97931034482759
          ],
          [
            116.33457440966471,
            39.98275862068966
          ],
          [
            116.33561919868254,
            39.98620689655172
          ],
          [
            116.33589743589744,
            39.986436332727415
          ],
          [
            116.33897419727833,
            39.98965517241379
          ],
          [
            116.34102564102564,
            39.99207081033312
          ],
          [
            116.34334943776459,
            39.99310344827586
          ],
          [
            116.34314369816309,
            39.99655172413793
          ],
          [
            116.34508077752075,
            40
          ]
        ]
      }
    },
    {
      "type": "Feature",
      "properties": {
        "elevation": 30,
        "level": 30,
        "levelIndex": 3,
        "pathIndex": 1,
        "type": "linestring_edge",
        "closed": false
      },
      "geometry": {
        "type": "LineString",
        "coordinates": [
          [
            116.45108203242845,
            40
          ],
          [
            116.45338538666493,
            39.99655172413793
          ],
          [
            116.45384615384616,
            39.99620021772465
          ],
          [
            116.45732814039815,
            39.99310344827586
          ],
          [
            116.45897435897436,
            39.99162221488234
          ],
          [
            116.46307710515674,
            39.98965517241379
          ],
          [
            116.46108436971761,
            39.98620689655172
          ],
          [
            116.46351099139154,
            39.98275862068966
          ],
          [
            116.46410256410256,
            39.97990982485658
          ],
          [
            116.46458161160925,
            39.97931034482759
          ],
          [
            116.46603701244055,
            39.97586206896552
          ],
          [
            116.46789210666418,
            39.97241379310345
          ],
          [
            116.46923076923076,
            39.97026540721637
          ],
          [
            116.47103435516159,
            39.96896551724138
          ],
          [
            116.47093714569255,
            39.96551724137931
          ],
          [
            116.46923076923076,
            39.96242444272757
          ],
          [
            116.46905019793765,
            39.96206896551724
          ],
          [
            116.46923076923076,
            39.96170547778403
          ],
          [
            116.47097182914646,
            39.95862068965517
          ],
          [
            116.47155874397426,
            39.9551724137931
          ],
          [
            116.47235203811046,
            39.95172413793103
          ],
          [
            116.47393129249488,
            39.94827586206897
          ],
          [
            116.47435897435898,
            39.945659375452024
          ],
          [
            116.47444773174723,
            39.9448275862069
          ],
          [
            116.47436533732176,
            39.94137931034483
          ],
          [
            116.4715903655632,
            39.93793103448276
          ],
          [
            116.4727490177945,
            39.93448275862069
          ],
          [
            116.46937930641016,
            39.93103448275862
          ],
          [
            116.46923076923076,
            39.93080724086769
          ],
          [
            116.46782237120738,
            39.92758620689655
          ],
          [
            116.46723099780644,
            39.92413793103448
          ],
          [
            116.46656167057898,
            39.92068965517241
          ],
          [
            116.4641574363497,
            39.917187770941716
          ],
          [
            116.46252925635696,
            39.91379310344828
          ],
          [
            116.462595162171,
            39.91034482758621
          ],
          [
            116.45962471502045,
            39.90689655172414
          ],
          [
            116.45897435897436,
            39.904964755100295
          ],
          [
            116.45384615384616,
            39.903998600767004
          ],
          [
            116.45300762053918,
            39.90344827586207
          ],
          [
            116.4520067404369,
            39.9
          ]
        ]
      }
    },
    {
      "type": "Feature",
      "properties": {
        "elevation": 40,
        "level": 40,
        "levelIndex": 4,
        "pathIndex": 0,
        "type": "linestring_edge",
        "closed": false
      },
      "geometry": {
        "type": "LineString",
        "coordinates": [
          [
            116.36137083330462,
            39.9
          ],
          [
            116.35973833897303,
            39.90344827586207
          ],
          [
            116.35641025641026,
            39.905965796097014
          ],
          [
            116.35455001955205,
            39.90689655172414
          ],
          [
            116.35128205128206,
            39.90862836235064
          ],
          [
            116.34990542563672,
            39.91034482758621
          ],
          [
            116.35128205128206,
            39.912900605490584
          ],
          [
            116.35173723103962,
            39.91379310344828
          ],
          [
            116.35128205128206,
            39.914428644441536
          ],
          [
            116.34820388046585,
            39.91724137931034
          ],
          [
            116.34680835139301,
            39.92068965517241
          ],
          [
            116.34615384615384,
            39.9213854821237
          ],
          [
            116.34406217120679,
            39.92413793103448
          ],
          [
            116.34344607845867,
            39.92758620689655
          ],
          [
            116.34175661126132,
            39.93103448275862
          ],
          [
            116.34102564102564,
            39.93374587783661
          ],
          [
            116.340426782055,
            39.93448275862069
          ],
          [
            116.33744468824716,
            39.93793103448276
          ],
          [
            116.3379128541383,
            39.94137931034483
          ],
          [
            116.33777099247182,
            39.9448275862069
          ],
          [
            116.3375445870739,
            39.94827586206897
          ],
          [
            116.33866247539599,
            39.95172413793103
          ],
          [
            116.33964637567692,
            39.9551724137931
          ],
          [
            116.33823666749512,
            39.95862068965517
          ],
          [
            116.33684176891455,
            39.96206896551724
          ],
          [
            116.34102564102564,
            39.96502900602536
          ],
          [
            116.3412283580241,
            39.96551724137931
          ],
          [
            116.34190003864671,
            39.96896551724138
          ],
          [
            116.34102564102564,
            39.9711355041046
          ],
          [
            116.34032099199648,
            39.97241379310345
          ],
          [
            116.34102564102564,
            39.974307195028395
          ],
          [
            116.34193215965644,
            39.97586206896552
          ],
          [
            116.34474950598425,
            39.97931034482759
          ],
          [
            116.34615384615384,
            39.98036293235491
          ],
          [
            116.34712317482388,
            39.98275862068966
          ],
          [
            116.34868728380854,
            39.98620689655172
          ],
          [
            116.34909989505401,
            39.98965517241379
          ],
          [
            116.35128205128206,
            39.99167969907903
          ],
          [
            116.35641025641026,
            39.99274995605849
          ],
          [
            116.35710694288667,
            39.99310344827586
          ],
          [
            116.35870619178348,
            39.99655172413793
          ],
          [
            116.36153846153846,
            39.99858102314148
          ],
          [
            116.36623439833335,
            40
          ]
        ]
      }
    },
    {
      "type": "Feature",
      "properties": {
        "elevation": 40,
        "level": 40,
        "levelIndex": 4,
        "pathIndex": 1,
        "type": "linestring_edge",
        "closed": false
      },
      "geometry": {
        "type": "LineString",
        "coordinates": [
          [
            116.43792174188268,
            40
          ],
          [
            116.43846153846154,
            39.99959395668556
          ],
          [
            116.44153949455722,
            39.99655172413793
          ],
          [
            116.44358974358974,
            39.99474596383864
          ],
          [
            116.44686712350018,
            39.99310344827586
          ],
          [
            116.44660643301127,
            39.98965517241379
          ],
          [
            116.44854991301304,
            39.98620689655172
          ],
          [
            116.44871794871794,
            39.985653226466674
          ],
          [
            116.45036103264377,
            39.98275862068966
          ],
          [
            116.45384615384616,
            39.98127897348785
          ],
          [
            116.45717418056901,
            39.97931034482759
          ],
          [
            116.45831918533973,
            39.97586206896552
          ],
          [
            116.45836903991606,
            39.97241379310345
          ],
          [
            116.45897435897436,
            39.97160964701082
          ],
          [
            116.46047869893667,
            39.96896551724138
          ],
          [
            116.46053477734307,
            39.96551724137931
          ],
          [
            116.46087189876872,
            39.96206896551724
          ],
          [
            116.46146656094848,
            39.95862068965517
          ],
          [
            116.46410256410256,
            39.955557283726826
          ],
          [
            116.46451705125088,
            39.9551724137931
          ],
          [
            116.46410256410256,
            39.95398991783661
          ],
          [
            116.4623645278136,
            39.95172413793103
          ],
          [
            116.46250288989512,
            39.94827586206897
          ],
          [
            116.46362543614124,
            39.9448275862069
          ],
          [
            116.46410256410256,
            39.941451002406765
          ],
          [
            116.46088947026543,
            39.93793103448276
          ],
          [
            116.46064454356639,
            39.93448275862069
          ],
          [
            116.45897435897436,
            39.93150391468994
          ],
          [
            116.45843298107195,
            39.93103448275862
          ],
          [
            116.45897435897436,
            39.92884853631816
          ],
          [
            116.45928197424765,
            39.92758620689655
          ],
          [
            116.4594453561661,
            39.92413793103448
          ],
          [
            116.45897435897436,
            39.92368692887391
          ],
          [
            116.45420639534403,
            39.92068965517241
          ],
          [
            116.4540709894872,
            39.91724137931034
          ],
          [
            116.45384615384616,
            39.91644141056217
          ],
          [
            116.45213638183564,
            39.91379310344828
          ],
          [
            116.44871794871794,
            39.91189484058651
          ],
          [
            116.44722108833554,
            39.91034482758621
          ],
          [
            116.44485380048243,
            39.90689655172414
          ],
          [
            116.44358974358974,
            39.90574657372003
          ],
          [
            116.43991282900885,
            39.90344827586207
          ],
          [
            116.43846153846154,
            39.90071006823298
          ],
          [
            116.43763633447323,
            39.9
          ]
        ]
      }
    },
    {
      "type": "Feature",
      "properties": {
        "elevation": 50,
        "level": 50,
        "levelIndex": 5,
        "pathIndex": 0,
        "type": "linestring_edge",
        "closed": false
      },
      "geometry": {
        "type": "LineString",
        "coordinates": [
          [
            116.3812120256395,
            39.9
          ],
          [
            116.37692307692308,
            39.90206687432341
          ],
          [
            116.37444172950481,
            39.90344827586207
          ],
          [
            116.37179487179488,
            39.90618958742905
          ],
          [
            116.37064030920496,
            39.90689655172414
          ],
          [
            116.36666666666666,
            39.9092021291315
          ],
          [
            116.36514445671293,
            39.91034482758621
          ],
          [
            116.36532445253485,
            39.91379310344828
          ],
          [
            116.36153846153846,
            39.91575366345583
          ],
          [
            116.3594566062326,
            39.91724137931034
          ],
          [
            116.35641025641026,
            39.919257566412114
          ],
          [
            116.35508503498315,
            39.92068965517241
          ],
          [
            116.354848281823,
            39.92413793103448
          ],
          [
            116.35457026274284,
            39.92758620689655
          ],
          [
            116.35196202549687,
            39.93103448275862
          ],
          [
            116.35128205128206,
            39.93317610845319
          ],
          [
            116.34991966531662,
            39.93448275862069
          ],
          [
            116.34937252959459,
            39.93793103448276
          ],
          [
            116.34882427816858,
            39.94137931034483
          ],
          [
            116.3464187210799,
            39.9448275862069
          ],
          [
            116.34615384615384,
            39.945327712331846
          ],
          [
            116.34592455677526,
            39.94827586206897
          ],
          [
            116.34615384615384,
            39.94875372859657
          ],
          [
            116.34827345033162,
            39.95172413793103
          ],
          [
            116.34820111029424,
            39.9551724137931
          ],
          [
            116.35027800043295,
            39.95862068965517
          ],
          [
            116.35073054308049,
            39.96206896551724
          ],
          [
            116.3507075570154,
            39.96551724137931
          ],
          [
            116.35128205128206,
            39.966655005164384
          ],
          [
            116.35257467301184,
            39.96896551724138
          ],
          [
            116.35298235890004,
            39.97241379310345
          ],
          [
            116.35263502821252,
            39.97586206896552
          ],
          [
            116.35641025641026,
            39.97821629518826
          ],
          [
            116.35764231017876,
            39.97931034482759
          ],
          [
            116.35641025641026,
            39.98220614830116
          ],
          [
            116.35603120467799,
            39.98275862068966
          ],
          [
            116.35641025641026,
            39.98299663630016
          ],
          [
            116.36062125815006,
            39.98620689655172
          ],
          [
            116.36153846153846,
            39.98735613916486
          ],
          [
            116.36478450517562,
            39.98965517241379
          ],
          [
            116.36666666666666,
            39.99192270490725
          ],
          [
            116.36771582446863,
            39.99310344827586
          ],
          [
            116.37179487179488,
            39.994514696412736
          ],
          [
            116.37622770716249,
            39.99655172413793
          ],
          [
            116.37692307692308,
            39.996939706141404
          ],
          [
            116.38205128205128,
            39.99851997948086
          ],
          [
            116.38717948717948,
            39.999870738377766
          ],
          [
            116.38753153057746,
            40
          ]
        ]
      }
    },
    {
      "type": "Feature",
      "properties": {
        "elevation": 50,
        "level": 50,
        "levelIndex": 5,
        "pathIndex": 1,
        "type": "linestring_edge",
        "closed": false
      },
      "geometry": {
        "type": "LineString",
        "coordinates": [
          [
            116.41746575194604,
            40
          ],
          [
            116.41794871794872,
            39.99879643652976
          ],
          [
            116.41890610054014,
            39.99655172413793
          ],
          [
            116.42307692307692,
            39.995343675050904
          ],
          [
            116.42770349536887,
            39.99310344827586
          ],
          [
            116.42820512820512,
            39.99251870848745
          ],
          [
            116.43107708439626,
            39.98965517241379
          ],
          [
            116.43333333333334,
            39.98865965817164
          ],
          [
            116.43640726108595,
            39.98620689655172
          ],
          [
            116.43846153846154,
            39.98478120717925
          ],
          [
            116.4407020689411,
            39.98275862068966
          ],
          [
            116.44358974358974,
            39.97998105214964
          ],
          [
            116.444606867511,
            39.97931034482759
          ],
          [
            116.44596782458436,
            39.97586206896552
          ],
          [
            116.44871794871794,
            39.97331259073735
          ],
          [
            116.44997026350207,
            39.97241379310345
          ],
          [
            116.45035590328527,
            39.96896551724138
          ],
          [
            116.45075819982642,
            39.96551724137931
          ],
          [
            116.4504830192682,
            39.96206896551724
          ],
          [
            116.45080090422142,
            39.95862068965517
          ],
          [
            116.453316743755,
            39.9551724137931
          ],
          [
            116.45230100310091,
            39.95172413793103
          ],
          [
            116.45332008280185,
            39.94827586206897
          ],
          [
            116.45375850153901,
            39.9448275862069
          ],
          [
            116.4510912414826,
            39.94137931034483
          ],
          [
            116.4525057117943,
            39.93793103448276
          ],
          [
            116.44871794871794,
            39.934695872625134
          ],
          [
            116.44850709642124,
            39.93448275862069
          ],
          [
            116.44683487219552,
            39.93103448275862
          ],
          [
            116.44867390138795,
            39.92758620689655
          ],
          [
            116.44586425146593,
            39.92413793103448
          ],
          [
            116.44358974358974,
            39.923253891733324
          ],
          [
            116.4424778149847,
            39.92068965517241
          ],
          [
            116.44211474515376,
            39.91724137931034
          ],
          [
            116.43846153846154,
            39.91609127179598
          ],
          [
            116.43499158730437,
            39.91379310344828
          ],
          [
            116.43333333333334,
            39.912009327012
          ],
          [
            116.43254637946137,
            39.91034482758621
          ],
          [
            116.43333333333334,
            39.907540143215634
          ],
          [
            116.43358972117424,
            39.90689655172414
          ],
          [
            116.43333333333334,
            39.906648525136156
          ],
          [
            116.43240536461307,
            39.90689655172414
          ],
          [
            116.42820512820512,
            39.90744291910539
          ],
          [
            116.42625559921672,
            39.90689655172414
          ],
          [
            116.42589488250857,
            39.90344827586207
          ],
          [
            116.42307692307692,
            39.90165526035495
          ],
          [
            116.41794871794872,
            39.9004231289319
          ],
          [
            116.4154806387713,
            39.9
          ]
        ]
      }
    },
    {
      "type": "Feature",
      "properties": {
        "elevation": 60,
        "level": 60,
        "levelIndex": 6,
        "pathIndex": 0,
        "type": "linestring",
        "closed": true
      },
      "geometry": {
        "type": "LineString",
        "coordinates": [
          [
            116.3923076923077,
            39.906498999818055
          ],
          [
            116.39161224071617,
            39.90689655172414
          ],
          [
            116.38717948717948,
            39.9094043682639
          ],
          [
            116.3851179568988,
            39.91034482758621
          ],
          [
            116.38205128205128,
            39.91169847940651
          ],
          [
            116.37870388243388,
            39.91379310344828
          ],
          [
            116.37692307692308,
            39.91600812877955
          ],
          [
            116.37487793463802,
            39.91724137931034
          ],
          [
            116.37179487179488,
            39.918754129287976
          ],
          [
            116.36753895155924,
            39.92068965517241
          ],
          [
            116.36666666666666,
            39.92123542071164
          ],
          [
            116.36470721546397,
            39.92413793103448
          ],
          [
            116.3637023472836,
            39.92758620689655
          ],
          [
            116.36401487312847,
            39.93103448275862
          ],
          [
            116.36153846153846,
            39.93326811554387
          ],
          [
            116.35929332796782,
            39.93448275862069
          ],
          [
            116.3598900351015,
            39.93793103448276
          ],
          [
            116.35877343335846,
            39.94137931034483
          ],
          [
            116.35812885968102,
            39.9448275862069
          ],
          [
            116.35796831633965,
            39.94827586206897
          ],
          [
            116.35641025641026,
            39.95104187808547
          ],
          [
            116.3560208864759,
            39.95172413793103
          ],
          [
            116.35641025641026,
            39.9536772327956
          ],
          [
            116.35715272651065,
            39.9551724137931
          ],
          [
            116.35641025641026,
            39.95701841588403
          ],
          [
            116.35621654769923,
            39.95862068965517
          ],
          [
            116.35641025641026,
            39.95913681733873
          ],
          [
            116.36075322152871,
            39.96206896551724
          ],
          [
            116.36153846153846,
            39.963148327904435
          ],
          [
            116.3622506725487,
            39.96551724137931
          ],
          [
            116.36283165339796,
            39.96896551724138
          ],
          [
            116.36153846153846,
            39.97220336120006
          ],
          [
            116.36146055161429,
            39.97241379310345
          ],
          [
            116.3653848245422,
            39.97586206896552
          ],
          [
            116.36666666666666,
            39.97793404330059
          ],
          [
            116.37022959033635,
            39.97931034482759
          ],
          [
            116.37179487179488,
            39.98160406421262
          ],
          [
            116.37208775234134,
            39.98275862068966
          ],
          [
            116.37692307692308,
            39.98542616277438
          ],
          [
            116.37973983100974,
            39.98620689655172
          ],
          [
            116.38205128205128,
            39.98787664618554
          ],
          [
            116.38487975378104,
            39.98965517241379
          ],
          [
            116.38717948717948,
            39.99037993209827
          ],
          [
            116.3923076923077,
            39.99144851185545
          ],
          [
            116.3974358974359,
            39.99255994789317
          ],
          [
            116.4002529556063,
            39.99310344827586
          ],
          [
            116.4025641025641,
            39.99355254996526
          ],
          [
            116.40614588659045,
            39.99310344827586
          ],
          [
            116.4072560142814,
            39.98965517241379
          ],
          [
            116.4076923076923,
            39.9894042414691
          ],
          [
            116.41282051282052,
            39.9889383909618
          ],
          [
            116.41794871794872,
            39.9889484974862
          ],
          [
            116.42307692307692,
            39.98637832417588
          ],
          [
            116.42332789629859,
            39.98620689655172
          ],
          [
            116.42590914283349,
            39.98275862068966
          ],
          [
            116.42820512820512,
            39.982384352479954
          ],
          [
            116.431133398918,
            39.97931034482759
          ],
          [
            116.43231246964841,
            39.97586206896552
          ],
          [
            116.4333130996056,
            39.97241379310345
          ],
          [
            116.4359767125485,
            39.96896551724138
          ],
          [
            116.43800302874557,
            39.96551724137931
          ],
          [
            116.43846153846154,
            39.96277845214786
          ],
          [
            116.43968985639125,
            39.96206896551724
          ],
          [
            116.44188694371623,
            39.95862068965517
          ],
          [
            116.44211505502426,
            39.9551724137931
          ],
          [
            116.44170127985598,
            39.95172413793103
          ],
          [
            116.44258651756334,
            39.94827586206897
          ],
          [
            116.44358974358974,
            39.94700605839415
          ],
          [
            116.4445426183669,
            39.9448275862069
          ],
          [
            116.44373054010586,
            39.94137931034483
          ],
          [
            116.44358974358974,
            39.94110408904392
          ],
          [
            116.44134589671269,
            39.93793103448276
          ],
          [
            116.43862528427702,
            39.93448275862069
          ],
          [
            116.43846153846154,
            39.9340979162872
          ],
          [
            116.4377855456629,
            39.93103448275862
          ],
          [
            116.43562953323138,
            39.92758620689655
          ],
          [
            116.43333333333334,
            39.92535442413913
          ],
          [
            116.43191275054636,
            39.92413793103448
          ],
          [
            116.43333333333334,
            39.921055061097796
          ],
          [
            116.43341084023953,
            39.9206392716183
          ],
          [
            116.42820512820512,
            39.91870424739499
          ],
          [
            116.424965380423,
            39.91724137931034
          ],
          [
            116.42438906055901,
            39.91379310344828
          ],
          [
            116.42307692307692,
            39.91285491078898
          ],
          [
            116.41794871794872,
            39.91170015594644
          ],
          [
            116.41282051282052,
            39.911177137443715
          ],
          [
            116.41164320651754,
            39.91034482758621
          ],
          [
            116.4076923076923,
            39.9082769577636
          ],
          [
            116.4025641025641,
            39.9070609520172
          ],
          [
            116.3974358974359,
            39.90706189213503
          ],
          [
            116.3960937028735,
            39.90689655172414
          ],
          [
            116.3923076923077,
            39.906498999818055
          ]
        ]
      }
    },
    {
      "type": "Feature",
      "properties": {
        "elevation": 70,
        "level": 70,
        "levelIndex": 7,
        "pathIndex": 0,
        "type": "linestring",
        "closed": true
      },
      "geometry": {
        "type": "LineString",
        "coordinates": [
          [
            116.38717948717948,
            39.920352756452836
          ],
          [
            116.38586179202883,
            39.92068965517241
          ],
          [
            116.38205128205128,
            39.92150138487522
          ],
          [
            116.38036734714771,
            39.92413793103448
          ],
          [
            116.37692307692308,
            39.926802096624215
          ],
          [
            116.37562660392648,
            39.92758620689655
          ],
          [
            116.3760287999004,
            39.93103448275862
          ],
          [
            116.37179487179488,
            39.93310739400264
          ],
          [
            116.37117460905502,
            39.93448275862069
          ],
          [
            116.36943213812454,
            39.93793103448276
          ],
          [
            116.36666666666666,
            39.94119498547269
          ],
          [
            116.36650543994638,
            39.94137931034483
          ],
          [
            116.36666666666666,
            39.941574897255265
          ],
          [
            116.36855967930302,
            39.9448275862069
          ],
          [
            116.3689193691059,
            39.94827586206897
          ],
          [
            116.3683373596214,
            39.95172413793103
          ],
          [
            116.36830160379971,
            39.9551724137931
          ],
          [
            116.36892562175083,
            39.95862068965517
          ],
          [
            116.36914957073375,
            39.96206896551724
          ],
          [
            116.37023552587925,
            39.96551724137931
          ],
          [
            116.37132763062394,
            39.96896551724138
          ],
          [
            116.37179487179488,
            39.96923170797548
          ],
          [
            116.37692307692308,
            39.97204113748371
          ],
          [
            116.37769984466559,
            39.97241379310345
          ],
          [
            116.38149960612868,
            39.97586206896552
          ],
          [
            116.38134759847347,
            39.97931034482759
          ],
          [
            116.38205128205128,
            39.97952582675739
          ],
          [
            116.38384682987042,
            39.97931034482759
          ],
          [
            116.38717948717948,
            39.978070104221295
          ],
          [
            116.3887594173448,
            39.97931034482759
          ],
          [
            116.39167834979958,
            39.98275862068966
          ],
          [
            116.3923076923077,
            39.98304977661872
          ],
          [
            116.3928244802233,
            39.98275862068966
          ],
          [
            116.3974358974359,
            39.980518976522575
          ],
          [
            116.4025641025641,
            39.98174424679887
          ],
          [
            116.4076923076923,
            39.981351022062334
          ],
          [
            116.41282051282052,
            39.97993634543557
          ],
          [
            116.41572763706125,
            39.97931034482759
          ],
          [
            116.41684020063045,
            39.97586206896552
          ],
          [
            116.41794871794872,
            39.9747970900974
          ],
          [
            116.42307692307692,
            39.97410531925502
          ],
          [
            116.42475170642447,
            39.97241379310345
          ],
          [
            116.42826856479883,
            39.96903508707919
          ],
          [
            116.43070984238557,
            39.96551724137931
          ],
          [
            116.4298247034792,
            39.96206896551724
          ],
          [
            116.43333333333334,
            39.959081804146024
          ],
          [
            116.43354762123442,
            39.95862068965517
          ],
          [
            116.43333333333334,
            39.95829713769493
          ],
          [
            116.43147495254965,
            39.9551724137931
          ],
          [
            116.43077345315047,
            39.95172413793103
          ],
          [
            116.4328829815016,
            39.94827586206897
          ],
          [
            116.43199513927111,
            39.9448275862069
          ],
          [
            116.43333333333334,
            39.94186990806429
          ],
          [
            116.43339057817673,
            39.94132116497738
          ],
          [
            116.43058527286044,
            39.93793103448276
          ],
          [
            116.42942952384197,
            39.93448275862069
          ],
          [
            116.42820512820512,
            39.933132923200766
          ],
          [
            116.42474263863275,
            39.93103448275862
          ],
          [
            116.42571466056043,
            39.92758620689655
          ],
          [
            116.42302265757807,
            39.924199130421755
          ],
          [
            116.41794871794872,
            39.922653945461285
          ],
          [
            116.41542876164473,
            39.92068965517241
          ],
          [
            116.41282051282052,
            39.919221477618535
          ],
          [
            116.4076923076923,
            39.91870024332556
          ],
          [
            116.4025641025641,
            39.918312183224316
          ],
          [
            116.3974358974359,
            39.91828357209358
          ],
          [
            116.3923076923077,
            39.918854657451476
          ],
          [
            116.38717948717948,
            39.920352756452836
          ]
        ]
      }
    },
    {
      "type": "Feature",
      "properties": {
        "elevation": 80,
        "level": 80,
        "levelIndex": 8,
        "pathIndex": 0,
        "type": "linestring",
        "closed": true
      },
      "geometry": {
        "type": "LineString",
        "coordinates": [
          [
            116.3923076923077,
            39.92718878250659
          ],
          [
            116.39177291680087,
            39.92758620689655
          ],
          [
            116.3923076923077,
            39.93019941916896
          ],
          [
            116.39237895784129,
            39.931087937165614
          ],
          [
            116.39199363723316,
            39.93103448275862
          ],
          [
            116.38717948717948,
            39.92978216019121
          ],
          [
            116.38606085085473,
            39.93103448275862
          ],
          [
            116.38474484449205,
            39.93448275862069
          ],
          [
            116.3822166738755,
            39.93793103448276
          ],
          [
            116.38205128205128,
            39.9383920856195
          ],
          [
            116.37873038324545,
            39.94137931034483
          ],
          [
            116.37975053888894,
            39.9448275862069
          ],
          [
            116.3768764119178,
            39.948205711900265
          ],
          [
            116.37692307692308,
            39.94871889649217
          ],
          [
            116.37820814294756,
            39.95172413793103
          ],
          [
            116.37941188823469,
            39.9551724137931
          ],
          [
            116.3798373543945,
            39.95862068965517
          ],
          [
            116.3804272384983,
            39.96206896551724
          ],
          [
            116.38128125967074,
            39.96551724137931
          ],
          [
            116.38205128205128,
            39.966164950563545
          ],
          [
            116.38717948717948,
            39.96846155320608
          ],
          [
            116.38867024476956,
            39.96896551724138
          ],
          [
            116.3923076923077,
            39.96986542156464
          ],
          [
            116.396638129892,
            39.97241379310345
          ],
          [
            116.3974358974359,
            39.97267194510309
          ],
          [
            116.39841444323221,
            39.97241379310345
          ],
          [
            116.4025641025641,
            39.970366039530134
          ],
          [
            116.4076923076923,
            39.97076459747643
          ],
          [
            116.41282051282052,
            39.97021235389494
          ],
          [
            116.41537663372114,
            39.96896551724138
          ],
          [
            116.41794871794872,
            39.96574845287537
          ],
          [
            116.41807296326918,
            39.96551724137931
          ],
          [
            116.41945867191853,
            39.96206896551724
          ],
          [
            116.42261729393574,
            39.95862068965517
          ],
          [
            116.42029723536169,
            39.9551724137931
          ],
          [
            116.42014955420544,
            39.95172413793103
          ],
          [
            116.42307692307692,
            39.94896626996036
          ],
          [
            116.42373641078488,
            39.94827586206897
          ],
          [
            116.42312935169247,
            39.9448275862069
          ],
          [
            116.42307692307692,
            39.94388154914016
          ],
          [
            116.42266211734936,
            39.94137931034483
          ],
          [
            116.41794871794872,
            39.939314479405255
          ],
          [
            116.41681842091184,
            39.93793103448276
          ],
          [
            116.41578899749277,
            39.93448275862069
          ],
          [
            116.4140748567461,
            39.93103448275862
          ],
          [
            116.41282051282052,
            39.9296203372831
          ],
          [
            116.4083941446095,
            39.93103448275862
          ],
          [
            116.4076923076923,
            39.93122072001779
          ],
          [
            116.40730014905226,
            39.93103448275862
          ],
          [
            116.40429153805567,
            39.92758620689655
          ],
          [
            116.4025641025641,
            39.92664907676648
          ],
          [
            116.3974358974359,
            39.92731930896282
          ],
          [
            116.3923076923077,
            39.92718878250659
          ]
        ]
      }
    },
    {
      "type": "Feature",
      "properties": {
        "elevation": 90,
        "level": 90,
        "levelIndex": 9,
        "pathIndex": 0,
        "type": "linestring",
        "closed": true
      },
      "geometry": {
        "type": "LineString",
        "coordinates": [
          [
            116.3974358974359,
            39.93754806276443
          ],
          [
            116.39655088095806,
            39.93793103448276
          ],
          [
            116.39278112569963,
            39.94137931034483
          ],
          [
            116.3923076923077,
            39.941645010786964
          ],
          [
            116.3871880506383,
            39.94488227202658
          ],
          [
            116.3868906601294,
            39.94827586206897
          ],
          [
            116.3862801187887,
            39.95172413793103
          ],
          [
            116.38717948717948,
            39.95287028992448
          ],
          [
            116.38971173453517,
            39.9551724137931
          ],
          [
            116.3923076923077,
            39.95788518484654
          ],
          [
            116.39303971375077,
            39.95862068965517
          ],
          [
            116.39620038898066,
            39.96206896551724
          ],
          [
            116.3974358974359,
            39.962218540948385
          ],
          [
            116.39813941643934,
            39.96206896551724
          ],
          [
            116.4025641025641,
            39.961192168239094
          ],
          [
            116.4076923076923,
            39.960420917821665
          ],
          [
            116.40900169429881,
            39.95862068965517
          ],
          [
            116.41280594989041,
            39.9551724137931
          ],
          [
            116.41266975926358,
            39.95172413793103
          ],
          [
            116.41122089537319,
            39.94827586206897
          ],
          [
            116.41282051282052,
            39.94488438428548
          ],
          [
            116.41004754076462,
            39.94137931034483
          ],
          [
            116.4076923076923,
            39.939642349469224
          ],
          [
            116.4029032708333,
            39.93793103448276
          ],
          [
            116.4025641025641,
            39.937801364026356
          ],
          [
            116.3974358974359,
            39.93754806276443
          ]
        ]
      }
    }
  ]
}