{
  "type": "FeatureCollection",
  "features": [
    {
      "type": "Feature",
      "properties": {
        "value": 25,
        "level": 25,
        "levelIndex": 0,
        "type": "filled_contour",
        "hasHoles": true,
        "polygonIndex": 0
      },
      "geometry": {
        "type": "Polygon",
        "coordinates": [
          [
            [
              0,
              0
            ],
            [
              790,
              0
            ],
            [
              790,
              590
            ],
            [
              0,
              590
            ],
            [
              0,
              0
            ]
          ],
          [
            [
              540,
              520.5649177164977
            ],
            [
              533.8846524378396,
              530
            ],
            [
              534.0070071285049,
              540
            ],
            [
              540,
              547.846177623463
            ],
            [
              545.3489217791812,
              550
            ],
            [
              550,
              551.1414212424827
            ],
            [
              557.6855533063681,
              550
            ],
            [
              560,
              549.3069556186651
            ],
            [
              566.2258796413303,
              540
            ],
            [
              565.7955924060127,
              530
            ],
            [
              559.3274981755839,
              520
            ],
            [
              550,
              517.7170781292956
            ],
            [
              541.0949257785456,
              520
            ],
            [
              540,
              520.5649177164977
            ]
          ]
        ]
      }
    },
    {
      "type": "Feature",
      "properties": {
        "value": 30,
        "level": 30,
        "levelIndex": 1,
        "type": "filled_contour",
        "hasHoles": false,
        "polygonIndex": 0
      },
      "geometry": {
        "type": "Polygon",
        "coordinates": [
          [
            [
              541.0949257785456,
              520
            ],
            [
              550,
              517.7170781292956
            ],
            [
              559.3274981755839,
              520
            ],
            [
              565.7955924060127,
              530
            ],
            [
              566.2258796413303,
              540
            ],
            [
              560,
              549.3069556186651
            ],
            [
              557.6855533063681,
              550
            ],
            [
              550,
              551.1414212424827
            ],
            [
              545.3489217791812,
              550
            ],
            [
              540,
              547.846177623463
            ],
            [
              534.0070071285049,
              540
            ],
            [
              533.8846524378396,
              530
            ],
            [
              540,
              520.5649177164977
            ],
            [
              541.0949257785456,
              520
            ]
          ]
        ]
      }
    },
    {
      "type": "Feature",
      "properties": {
        "value": 35,
        "level": 35,
        "levelIndex": 2,
        "type": "filled_contour",
        "hasHoles": false,
        "polygonIndex": 0
      },
      "geometry": {
        "type": "Polygon",
        "coordinates": [
          [
            [
              545.8341677449534,
              390
            ],
            [
              550,
              383.8578138035901
            ],
            [
              559.7695749719979,
              390
            ],
            [
              550,
              394.1516683978374
            ],
            [
              545.8341677449534,
              390
            ]
          ]
        ]
      }
    },
    {
      "type": "Feature",
      "properties": {
        "value": 35,
        "level": 35,
        "levelIndex": 2,
        "type": "filled_contour",
        "hasHoles": false,
        "polygonIndex": 1
      },
      "geometry": {
        "type": "Polygon",
        "coordinates": [
          [
            [
              630,
              505.19064405398797
            ],
            [
              640,
              503.32129945396105
            ],
            [
              650,
              503.3159775326768
            ],
            [
              660,
              508.8722841783179
            ],
            [
              660.5470056774847,
              510
            ],
            [
              661.1970415328378,
              520
            ],
            [
              660,
              525.7866164220438
            ],
            [
              659.0086566824765,
              530
            ],
            [
              651.0604495324959,
              540
            ],
            [
              650,
              540.5843567103482
            ],
            [
              640,
              542.6261665487334
            ],
            [
              630,
              541.5868021466322
            ],
            [
              625.9436078990859,
              540
            ],
            [
              620,
              535.8132962157174
            ],
            [
              615.6057579129607,
              530
            ],
            [
              614.2437197065567,
              520
            ],
            [
              620,
              509.5768701394099
            ],
            [
              630,
              505.19064405398797
            ]
          ]
        ]
      }
    },
    {
      "type": "Feature",
      "properties": {
        "value": 60,
        "level": 60,
        "levelIndex": 7,
        "type": "filled_contour",
        "hasHoles": false,
        "polygonIndex": 0
      },
      "geometry": {
        "type": "Polygon",
        "coordinates": [
          [
            [
              0,
              585.1652977321834
            ],
            [
              3.9005266833256624,
              590
            ],
            [
              0,
              590
            ],
            [
              0,
              585.1652977321834
            ]
          ]
        ]
      }
    },
    {
      "type": "Feature",
      "properties": {
        "value": 65,
        "level": 65,
        "levelIndex": 8,
        "type": "filled_contour",
        "hasHoles": false,
        "polygonIndex": 0
      },
      "geometry": {
        "type": "Polygon",
        "coordinates": [
          [
            [
              379.9046445902824,
              60
            ],
            [
              390,
              59.73985481834468
            ],
            [
              400,
              67.56434631750413
            ],
            [
              401.19034002501166,
              70
            ],
            [
              402.58112711183276,
              80
            ],
            [
              401.1195323438973,
              90
            ],
            [
              400,
              92.4153565881898
            ],
            [
              390.642946072457,
              100
            ],
            [
              380,
              100.5998263282455
            ],
            [
              377.95884296620284,
              100
            ],
            [
              370,
              96.57081133652763
            ],
            [
              364.5269142494326,
              90
            ],
            [
              362.7769538092631,
              80
            ],
            [
              366.1812847239829,
              70
            ],
            [
              370,
              65.61008591223712
            ],
            [
              379.9046445902824,
              60
            ]
          ]
        ]
      }
    },
    {
      "type": "Feature",
      "properties": {
        "value": 70,
        "level": 70,
        "levelIndex": 9,
        "type": "filled_contour",
        "hasHoles": true,
        "polygonIndex": 0
      },
      "geometry": {
        "type": "Polygon",
        "coordinates": [
          [
            [
              600,
              45.635865545309
            ],
            [
              610,
              43.9177867417896
            ],
            [
              620,
              43.13444853134455
            ],
            [
              630,
              43.00361010812005
            ],
            [
              640,
              43.47872407721925
            ],
            [
              650,
              44.7068632629188
            ],
            [
              660,
              47.11218695479191
            ],
            [
              666.8854505250624,
              50
            ],
            [
              670,
              51.84921259777972
            ],
            [
              678.9850732079017,
              60
            ],
            [
              680,
              61.26239741413065
            ],
            [
              686.2869744385706,
              70
            ],
            [
              690,
              75.38691260919242
            ],
            [
              693.5924412301479,
              80
            ],
            [
              700,
              86.77615855003263
            ],
            [
              704.0528134674628,
              90
            ],
            [
              710,
              94.00245559207649
            ],
            [
              720,
              99.20920824430206
            ],
            [
              721.7807609922065,
              100
            ],
            [
              730,
              104.25883839336475
            ],
            [
              738.0028215665541,
              110
            ],
            [
              740,
              112.64734352404051
            ],
            [
              743.5777895318452,
              120
            ],
            [
              744.7384144913051,
              130
            ],
            [
              743.7803859135679,
              140
            ],
            [
              741.0323325275472,
              150
            ],
            [
              740,
              152.08790486834835
            ],
            [
              735.2136136623865,
              160
            ],
            [
              730,
              165.1162041294976
            ],
            [
              722.6039774646108,
              170
            ],
            [
              720,
              171.21335314286443
            ],
            [
              710,
              174.23382309230763
            ],
            [
              700,
              175.94178368288425
            ],
            [
              690,
              176.64333457732673
            ],
            [
              680,
              176.38496261084492
            ],
            [
              670,
              174.9722911469542
            ],
            [
              660,
              171.92162378173592
            ],
            [
              655.7107495198265,
              170
            ],
            [
              650,
              166.6687550035729
            ],
            [
              640,
              160.50069738864195
            ],
            [
              638.7840262337827,
              160
            ],
            [
              630,
              157.08063579632028
            ],
            [
              620,
              156.8551568227374
            ],
            [
              610,
              159.4945971212931
            ],
            [
              608.9187925738506,
              160
            ],
            [
              600,
              163.96287015594856
            ],
            [
              590,
              167.76324815309636
            ],
            [
              581.1443327409567,
              170
            ],
            [
              580,
              170.20591866316488
            ],
            [
              570,
              171.12421461638232
            ],
            [
              560,
              170.98072739360308
            ],
            [
              551.7061077352399,
              170
            ],
            [
              550,
              169.75588306634265
            ],
            [
              540,
              166.73151357502596
            ],
            [
              530,
              161.64805736292496
            ],
            [
              527.7636885422273,
              160
            ],
            [
              520,
              150.89942219756523
            ],
            [
              519.3816340529908,
              150
            ],
            [
              515.2951478601344,
              140
            ],
            [
              513.2315294454233,
              130
            ],
            [
              513.2462270743735,
              120
            ],
            [
              518.2284833699588,
              110
            ],
            [
              520,
              108.71671891291197
            ],
            [
              530,
              103.66379896018034
            ],
            [
              538.7911156870315,
              100
            ],
            [
              540,
              99.55499194035379
            ],
            [
              550,
              94.28489186299726
            ],
            [
              555.606334704857,
              90
            ],
            [
              560,
              85.87157991940295
            ],
            [
              564.5690464694424,
              80
            ],
            [
              570,
              71.59348497097415
            ],
            [
              570.9242875696173,
              70
            ],
            [
              577.135128339114,
              60
            ],
            [
              580,
              56.63137508606245
            ],
            [
              588.1572929532053,
              50
            ],
            [
              590,
              49.042652508314404
            ],
            [
              600,
              45.635865545309
            ]
          ],
          [
            [
              609.5545099348863,
              69.70019313358802
            ],
            [
              600.1492925029361,
              80
            ],
            [
              596.2585297610734,
              90
            ],
            [
              594.8515776672222,
              100
            ],
            [
              598.0647047063791,
              110
            ],
            [
              600,
              111.51510707410814
            ],
            [
              610,
              115.1569126286511
            ],
            [
              620,
              116.63533463193144
            ],
            [
              630,
              117.47792830154634
            ],
            [
              640,
              118.10015881701624
            ],
            [
              650,
              118.63209307810288
            ],
            [
              660,
              118.93075152053018
            ],
            [
              669.4197068200696,
              110
            ],
            [
              666.8104564498726,
              100
            ],
            [
              663.3336019159821,
              90
            ],
            [
              660,
              83.36083311939669
            ],
            [
              658.1948723116427,
              80
            ],
            [
              650,
              71.01349437823282
            ],
            [
              648.6140584985596,
              70
            ],
            [
              640,
              66.14212930392675
            ],
            [
              630,
              64.49176380872196
            ],
            [
              620,
              65.50354237053254
            ],
            [
              609.5545099348863,
              69.70019313358802
            ]
          ],
          [
            [
              690,
              129.06602958563244
            ],
            [
              685.704780649066,
              130
            ],
            [
              689.8134295909551,
              140
            ],
            [
              700,
              140.2232892390061
            ],
            [
              700,
              139.23387006790603
            ],
            [
              692.3514588976888,
              130
            ],
            [
              690,
              129.06602958563244
            ]
          ]
        ]
      }
    },
    {
      "type": "Feature",
      "properties": {
        "value": 70,
        "level": 70,
        "levelIndex": 9,
        "type": "filled_contour",
        "hasHoles": false,
        "polygonIndex": 1
      },
      "geometry": {
        "type": "Polygon",
        "coordinates": [
          [
            [
              203.09797513132327,
              80
            ],
            [
              210,
              75.45436325593657
            ],
            [
              220,
              76.2036136254809
            ],
            [
              224.9997177086279,
              80
            ],
            [
              227.9652998331671,
              90
            ],
            [
              220,
              96.35253459728386
            ],
            [
              210,
              95.36636930822499
            ],
            [
              202.45981384016662,
              90
            ],
            [
              203.09797513132327,
              80
            ]
          ]
        ]
      }
    },
    {
      "type": "Feature",
      "properties": {
        "value": 70,
        "level": 70,
        "levelIndex": 9,
        "type": "filled_contour",
        "hasHoles": false,
        "polygonIndex": 2
      },
      "geometry": {
        "type": "Polygon",
        "coordinates": [
          [
            [
              470,
              71.32917030756084
            ],
            [
              480,
              78.70587160781265
            ],
            [
              480.9465416961448,
              80
            ],
            [
              480,
              82.36055312170718
            ],
            [
              470,
              87.34627341246696
            ],
            [
              460,
              82.58846320552642
            ],
            [
              457.84525164273555,
              80
            ],
            [
              460,
              75.20032520194246
            ],
            [
              470,
              71.32917030756084
            ]
          ]
        ]
      }
    },
    {
      "type": "Feature",
      "properties": {
        "value": 70,
        "level": 70,
        "levelIndex": 9,
        "type": "filled_contour",
        "hasHoles": false,
        "polygonIndex": 3
      },
      "geometry": {
        "type": "Polygon",
        "coordinates": [
          [
            [
              60,
              126.57833563517673
            ],
            [
              67.34550997398154,
              130
            ],
            [
              68.10172688305808,
              140
            ],
            [
              63.71472296120973,
              150
            ],
            [
              60,
              153.57422727174315
            ],
            [
              50,
              156.48456495003438
            ],
            [
              40,
              152.33089749006248
            ],
            [
              37.9968134090464,
              150
            ],
            [
              36.79283446350887,
              140
            ],
            [
              40,
              134.4920697051592
            ],
            [
              45.66090691214812,
              130
            ],
            [
              50,
              127.98916255740559
            ],
            [
              60,
              126.57833563517673
            ]
          ]
        ]
      }
    },
    {
      "type": "Feature",
      "properties": {
        "value": 75,
        "level": 75,
        "levelIndex": 10,
        "type": "filled_contour",
        "hasHoles": false,
        "polygonIndex": 0
      },
      "geometry": {
        "type": "Polygon",
        "coordinates": [
          [
            [
              157.23487018688735,
              40
            ],
            [
              156.46757302406397,
              50
            ],
            [
              155.06916164242716,
              60
            ],
            [
              152.40507966541907,
              70
            ],
            [
              150,
              74.74575517316428
            ],
            [
              146.12704569361256,
              80
            ],
            [
              140,
              84.31539210686887
            ],
            [
              130,
              86.48141673152834
            ],
            [
              120,
              84.21707236430274
            ],
            [
              114.03661423121913,
              80
            ],
            [
              110,
              73.84940633633117
            ],
            [
              108.39936378372907,
              70
            ],
            [
              108.02665221873625,
              60
            ],
            [
              110,
              54.582812085408285
            ],
            [
              113.28134176585652,
              50
            ],
            [
              120,
              45.61353513921384
            ],
            [
              130,
              42.53917271235141
            ],
            [
              140,
              40.837059834900316
            ],
            [
              148.26616326706528,
              40
            ],
            [
              150,
              39.66056276314693
            ],
            [
              157.23487018688735,
              40
            ]
          ]
        ]
      }
    },
    {
      "type": "Feature",
      "properties": {
        "value": 75,
        "level": 75,
        "levelIndex": 10,
        "type": "filled_contour",
        "hasHoles": false,
        "polygonIndex": 1
      },
      "geometry": {
        "type": "Polygon",
        "coordinates": [
          [
            [
              620,
              65.50354237053254
            ],
            [
              630,
              64.49176380872196
            ],
            [
              640,
              66.14212930392675
            ],
            [
              648.6140584985596,
              70
            ],
            [
              650,
              71.01349437823282
            ],
            [
              658.1948723116427,
              80
            ],
            [
              660,
              83.36083311939669
            ],
            [
              663.3336019159821,
              90
            ],
            [
              666.8104564498726,
              100
            ],
            [
              669.4197068200696,
              110
            ],
            [
              660,
              118.93075152053018
            ],
            [
              650,
              118.63209307810288
            ],
            [
              640,
              118.10015881701624
            ],
            [
              630,
              117.47792830154634
            ],
            [
              620,
              116.63533463193144
            ],
            [
              610,
              115.1569126286511
            ],
            [
              600,
              111.51510707410814
            ],
            [
              598.0647047063791,
              110
            ],
            [
              594.8515776672222,
              100
            ],
            [
              596.2585297610734,
              90
            ],
            [
              600.1492925029361,
              80
            ],
            [
              609.5545099348863,
              69.70019313358802
            ],
            [
              620,
              65.50354237053254
            ]
          ]
        ]
      }
    },
    {
      "type": "Feature",
      "properties": {
        "value": 75,
        "level": 75,
        "levelIndex": 10,
        "type": "filled_contour",
        "hasHoles": false,
        "polygonIndex": 2
      },
      "geometry": {
        "type": "Polygon",
        "coordinates": [
          [
            [
              692.3514588976888,
              130
            ],
            [
              700,
              139.23387006790603
            ],
            [
              700,
              140.2232892390061
            ],
            [
              689.8134295909551,
              140
            ],
            [
              685.704780649066,
              130
            ],
            [
              690,
              129.06602958563244
            ],
            [
              692.3514588976888,
              130
            ]
          ]
        ]
      }
    },
    {
      "type": "Feature",
      "properties": {
        "value": 75,
        "level": 75,
        "levelIndex": 10,
        "type": "filled_contour",
        "hasHoles": true,
        "polygonIndex": 3
      },
      "geometry": {
        "type": "Polygon",
        "coordinates": [
          [
            [
              120,
              345.4825682444507
            ],
            [
              130,
              344.37562167579676
            ],
            [
              140,
              343.96131310122394
            ],
            [
              150,
              344.23709776819203
            ],
            [
              160,
              345.45481094812095
            ],
            [
              170,
              348.3200715656702
            ],
            [
              173.40947477445616,
              350
            ],
            [
              180,
              353.7401095171758
            ],
            [
              187.39707389424268,
              360
            ],
            [
              190,
              362.0864755462569
            ],
            [
              200,
              370.4854613453184
            ],
            [
              210,
              376.281765485046
            ],
            [
              217.9335095085094,
              380
            ],
            [
              220,
              380.77867313517544
            ],
            [
              230,
              383.7133960666913
            ],
            [
              240,
              386.43570601997595
            ],
            [
              250.5549077455847,
              390
            ],
            [
              260,
              395.89703706677517
            ],
            [
              263.49509261592925,
              400
            ],
            [
              267.75485723173676,
              410
            ],
            [
              269.40911676110625,
              420
            ],
            [
              270,
              427.28132131323747
            ],
            [
              270.18929369134696,
              430
            ],
            [
              270.8264566003016,
              440
            ],
            [
              271.60372099649186,
              450
            ],
            [
              272.63774369026964,
              460
            ],
            [
              273.93273877652007,
              470
            ],
            [
              275.3588990995399,
              480
            ],
            [
              276.55647001387086,
              490
            ],
            [
              276.7617092060815,
              500
            ],
            [
              274.6389214548492,
              510
            ],
            [
              270,
              517.7646170242452
            ],
            [
              268.09912999681546,
              520
            ],
            [
              260,
              525.8802289569045
            ],
            [
              252.1657654458147,
              530
            ],
            [
              250,
              530.9613841983852
            ],
            [
              240,
              535.0701788492078
            ],
            [
              230,
              539.4744044037324
            ],
            [
              228.95556801481533,
              540
            ],
            [
              220,
              545.0666049278158
            ],
            [
              212.46559435873053,
              550
            ],
            [
              210,
              551.7725702845835
            ],
            [
              200,
              558.7160252474857
            ],
            [
              197.79737983100233,
              560
            ],
            [
              190,
              563.9489923972903
            ],
            [
              180,
              567.0409187669414
            ],
            [
              170,
              568.5329752077525
            ],
            [
              160,
              569.0506455411853
            ],
            [
              150,
              569.007157899345
            ],
            [
              140,
              568.6152028100928
            ],
            [
              130,
              567.9485721517545
            ],
            [
              120,
              566.9792291572379
            ],
            [
              110,
              565.5789763777673
            ],
            [
              100,
              563.4804148460107
            ],
            [
              89.5987673783749,
              560
            ],
            [
              80,
              554.5850326708807
            ],
            [
              74.4564038383308,
              550
            ],
            [
              70,
              545.3322677409507
            ],
            [
              65.62232964439025,
              540
            ],
            [
              60,
              532.5070349433329
            ],
            [
              58.07882571571413,
              530
            ],
            [
              49.79576955277595,
              520
            ],
            [
              39.31698993484606,
              510
            ],
            [
              30,
              502.05044109691175
            ],
            [
              27.608483025338664,
              500
            ],
            [
              20,
              491.9322601441489
            ],
            [
              18.449765347071672,
              490
            ],
            [
              13.09132750307219,
              480
            ],
            [
              10.400117130602702,
              470
            ],
            [
              10,
              465.93910925581656
            ],
            [
              9.470610656628969,
              460
            ],
            [
              9.943160460725512,
              449.66287595947256
            ],
            [
              11.7433525436916,
              440
            ],
            [
              15.543490680524751,
              430
            ],
            [
              20,
              423.1737472151468
            ],
            [
              22.62519268233641,
              420
            ],
            [
              30,
              413.5103811303446
            ],
            [
              34.78379747857488,
              410
            ],
            [
              40,
              406.53232371538263
            ],
            [
              50,
              399.880142172095
            ],
            [
              60,
              391.7082674548021
            ],
            [
              61.81686162566914,
              390
            ],
            [
              70,
              380.8628640103496
            ],
            [
              70.7211357424856,
              380
            ],
            [
              78.31583560818207,
              370
            ],
            [
              80,
              367.77054730124814
            ],
            [
              87.06932182648387,
              360
            ],
            [
              90,
              357.31268140494404
            ],
            [
              100,
              351.08678709320486
            ],
            [
              102.73038102956637,
              350
            ],
            [
              110,
              347.5185298253661
            ],
            [
              120,
              345.4825682444507
            ]
          ],
          [
            [
              110,
              367.9595449765251
            ],
            [
              106.68651592394392,
              370
            ],
            [
              100,
              375.07466498761005
            ],
            [
              95.08842282589856,
              380
            ],
            [
              90,
              385.74913881362215
            ],
            [
              86.50400599541582,
              390
            ],
            [
              80,
              397.4685417310577
            ],
            [
              77.61528202952663,
              400
            ],
            [
              70,
              406.988867895219
            ],
            [
              66.19422434739792,
              410
            ],
            [
              60,
              414.4846967532851
            ],
            [
              51.78821727952692,
              420
            ],
            [
              50,
              421.27863877661554
            ],
            [
              40,
              429.25210009615677
            ],
            [
              39.21082810517115,
              430
            ],
            [
              31.791545492372578,
              440
            ],
            [
              30,
              444.609739852446
            ],
            [
              28.290287423498228,
              450
            ],
            [
              27.790987812663595,
              460
            ],
            [
              29.9309009370647,
              470
            ],
            [
              35.44155082447603,
              480
            ],
            [
              40,
              485.4734155169835
            ],
            [
              44.091894039767325,
              490
            ],
            [
              50,
              495.6640485506218
            ],
            [
              54.26012997831901,
              500
            ],
            [
              60,
              505.93421507141113
            ],
            [
              63.459387598761296,
              510
            ],
            [
              70,
              518.1929738254939
            ],
            [
              71.32884149789209,
              520
            ],
            [
              78.87472387402372,
              530
            ],
            [
              80,
              531.3573719473598
            ],
            [
              88.10601018005462,
              540
            ],
            [
              90,
              541.6148373282389
            ],
            [
              100,
              548.1283188567253
            ],
            [
              104.1759995359774,
              550
            ],
            [
              110,
              552.1144828643891
            ],
            [
              120,
              554.4299324781343
            ],
            [
              130,
              555.6717907423154
            ],
            [
              140,
              556.0225619228611
            ],
            [
              150,
              555.48949680412
            ],
            [
              160,
              553.9175020313985
            ],
            [
              170,
              550.9818440483932
            ],
            [
              172.33920180573074,
              550
            ],
            [
              180,
              546.195681326598
            ],
            [
              189.50614321547954,
              540
            ],
            [
              200,
              532.5840413707989
            ],
            [
              203.827280074727,
              530
            ],
            [
              210,
              526.1565271680179
            ],
            [
              220,
              520.6078821407522
            ],
            [
              221.23145342276385,
              520
            ],
            [
              230,
              515.6139507855444
            ],
            [
              240,
              510.01478391296956
            ],
            [
              250,
              500.97061439765747
            ],
            [
              250.75440927522388,
              500
            ],
            [
              255.34016756316115,
              490
            ],
            [
              257.13800610604767,
              480
            ],
            [
              257.5317481494371,
              470
            ],
            [
              257.13782617065317,
              460
            ],
            [
              256.14825618774364,
              450
            ],
            [
              254.46721329705036,
              440
            ],
            [
              251.67758629584327,
              430
            ],
            [
              250,
              426.08206070194785
            ],
            [
              246.60508449424464,
              420
            ],
            [
              240,
              412.71736078785034
            ],
            [
              236.42128605340685,
              410
            ],
            [
              230,
              406.1979300806643
            ],
            [
              220,
              401.7640436859019
            ],
            [
              215.51330117339853,
              400
            ],
            [
              210,
              397.7953642161359
            ],
            [
              200,
              393.5890364697665
            ],
            [
              192.4585702451098,
              390
            ],
            [
              190,
              388.6223049808418
            ],
            [
              180,
              382.39165499583623
            ],
            [
              176.37158238676585,
              380
            ],
            [
              170,
              375.4010341770411
            ],
            [
              161.40560709881805,
              370
            ],
            [
              160,
              369.1624855625915
            ],
            [
              150,
              364.9427726405033
            ],
            [
              140,
              362.7834449122808
            ],
            [
              130,
              362.5100484269737
            ],
            [
              120,
              364.1450136200407
            ],
            [
              110,
              367.9595449765251
            ]
          ]
        ]
      }
    },
    {
      "type": "Feature",
      "properties": {
        "value": 80,
        "level": 80,
        "levelIndex": 11,
        "type": "filled_contour",
        "hasHoles": true,
        "polygonIndex": 0
      },
      "geometry": {
        "type": "Polygon",
        "coordinates": [
          [
            [
              120,
              364.1450136200407
            ],
            [
              130,
              362.5100484269737
            ],
            [
              140,
              362.7834449122808
            ],
            [
              150,
              364.9427726405033
            ],
            [
              160,
              369.1624855625915
            ],
            [
              161.40560709881805,
              370
            ],
            [
              170,
              375.4010341770411
            ],
            [
              176.37158238676585,
              380
            ],
            [
              180,
              382.39165499583623
            ],
            [
              190,
              388.6223049808418
            ],
            [
              192.4585702451098,
              390
            ],
            [
              200,
              393.5890364697665
            ],
            [
              210,
              397.7953642161359
            ],
            [
              215.51330117339853,
              400
            ],
            [
              220,
              401.7640436859019
            ],
            [
              230,
              406.1979300806643
            ],
            [
              236.42128605340685,
              410
            ],
            [
              240,
              412.71736078785034
            ],
            [
              246.60508449424464,
              420
            ],
            [
              250,
              426.08206070194785
            ],
            [
              251.67758629584327,
              430
            ],
            [
              254.46721329705036,
              440
            ],
            [
              256.14825618774364,
              450
            ],
            [
              257.13782617065317,
              460
            ],
            [
              257.5317481494371,
              470
            ],
            [
              257.13800610604767,
              480
            ],
            [
              255.34016756316115,
              490
            ],
            [
              250.75440927522388,
              500
            ],
            [
              250,
              500.97061439765747
            ],
            [
              240,
              510.01478391296956
            ],
            [
              230,
              515.6139507855444
            ],
            [
              221.23145342276385,
              520
            ],
            [
              220,
              520.6078821407522
            ],
            [
              210,
              526.1565271680179
            ],
            [
              203.827280074727,
              530
            ],
            [
              200,
              532.5840413707989
            ],
            [
              189.50614321547954,
              540
            ],
            [
              180,
              546.195681326598
            ],
            [
              172.33920180573074,
              550
            ],
            [
              170,
              550.9818440483932
            ],
            [
              160,
              553.9175020313985
            ],
            [
              150,
              555.48949680412
            ],
            [
              140,
              556.0225619228611
            ],
            [
              130,
              555.6717907423154
            ],
            [
              120,
              554.4299324781343
            ],
            [
              110,
              552.1144828643891
            ],
            [
              104.1759995359774,
              550
            ],
            [
              100,
              548.1283188567253
            ],
            [
              90,
              541.6148373282389
            ],
            [
              88.10601018005462,
              540
            ],
            [
              80,
              531.3573719473598
            ],
            [
              78.87472387402372,
              530
            ],
            [
              71.32884149789209,
              520
            ],
            [
              70,
              518.1929738254939
            ],
            [
              63.459387598761296,
              510
            ],
            [
              60,
              505.93421507141113
            ],
            [
              54.26012997831901,
              500
            ],
            [
              50,
              495.6640485506218
            ],
            [
              44.091894039767325,
              490
            ],
            [
              40,
              485.4734155169835
            ],
            [
              35.44155082447603,
              480
            ],
            [
              29.9309009370647,
              470
            ],
            [
              27.790987812663595,
              460
            ],
            [
              28.290287423498228,
              450
            ],
            [
              30,
              444.609739852446
            ],
            [
              31.791545492372578,
              440
            ],
            [
              39.21082810517115,
              430
            ],
            [
              40,
              429.25210009615677
            ],
            [
              50,
              421.27863877661554
            ],
            [
              51.78821727952692,
              420
            ],
            [
              60,
              414.4846967532851
            ],
            [
              66.19422434739792,
              410
            ],
            [
              70,
              406.988867895219
            ],
            [
              77.61528202952663,
              400
            ],
            [
              80,
              397.4685417310577
            ],
            [
              86.50400599541582,
              390
            ],
            [
              90,
              385.74913881362215
            ],
            [
              95.08842282589856,
              380
            ],
            [
              100,
              375.07466498761005
            ],
            [
              106.68651592394392,
              370
            ],
            [
              110,
              367.9595449765251
            ],
            [
              120,
              364.1450136200407
            ]
          ],
          [
            [
              120,
              389.6286572294953
            ],
            [
              110,
              398.3119606319763
            ],
            [
              108.50846205740572,
              400
            ],
            [
              100.25230748719684,
              410.3151454912082
            ],
            [
              91.3334192060799,
              420
            ],
            [
              90,
              421.18949655182314
            ],
            [
              80,
              428.48922089393346
            ],
            [
              77.59164113230669,
              430
            ],
            [
              70,
              434.92903297307487
            ],
            [
              62.680571701709766,
              440
            ],
            [
              60,
              442.6984083001711
            ],
            [
              54.70323565127397,
              450
            ],
            [
              52.97179095565579,
              460
            ],
            [
              56.33121722852633,
              470
            ],
            [
              60,
              475.35404028232756
            ],
            [
              63.2644158960082,
              480
            ],
            [
              70,
              488.28394012653195
            ],
            [
              71.21640277956287,
              490
            ],
            [
              78.37084807543658,
              500
            ],
            [
              80,
              502.3312014350608
            ],
            [
              84.85860739533348,
              510
            ],
            [
              90,
              517.6500435542143
            ],
            [
              91.63247962307246,
              520
            ],
            [
              100,
              529.4496183858372
            ],
            [
              110,
              536.2789756938811
            ],
            [
              118.7571527465264,
              540
            ],
            [
              120,
              540.4108329112817
            ],
            [
              130,
              542.0723740382864
            ],
            [
              140,
              542.153256121872
            ],
            [
              150,
              540.6788216161605
            ],
            [
              152.28596822597854,
              540
            ],
            [
              160,
              537.1881927782927
            ],
            [
              170,
              531.871248395205
            ],
            [
              172.8693282395576,
              530
            ],
            [
              180,
              524.9638512329102
            ],
            [
              186.9001007268518,
              520
            ],
            [
              190,
              517.823694135161
            ],
            [
              200,
              511.3826079199115
            ],
            [
              202.33591533220417,
              510
            ],
            [
              210,
              505.51914450938705
            ],
            [
              219.32749334821773,
              500
            ],
            [
              230,
              491.6162615287191
            ],
            [
              231.5831692230439,
              490
            ],
            [
              237.95696822266007,
              480
            ],
            [
              240,
              473.44130800869027
            ],
            [
              240.86021421041644,
              470
            ],
            [
              241.50801639076272,
              460
            ],
            [
              240.4864486025195,
              450
            ],
            [
              240,
              448.18531754906843
            ],
            [
              237.3950449504676,
              440
            ],
            [
              231.44083387670122,
              430
            ],
            [
              230,
              428.39105693218914
            ],
            [
              220,
              420.3065855000036
            ],
            [
              210,
              415.3178700991381
            ],
            [
              200,
              411.3416879964918
            ],
            [
              196.24387285002456,
              410
            ],
            [
              190,
              407.67796791645185
            ],
            [
              180,
              403.83281790718615
            ],
            [
              171.27571832793936,
              400
            ],
            [
              170,
              399.35465824813554
            ],
            [
              160,
              394.3637616921053
            ],
            [
              151.1669541236522,
              390
            ],
            [
              150,
              389.4278411655728
            ],
            [
              140,
              386.5327676234198
            ],
            [
              130,
              386.3693367817734
            ],
            [
              120,
              389.6286572294953
            ]
          ]
        ]
      }
    },
    {
      "type": "Feature",
      "properties": {
        "value": 85,
        "level": 85,
        "levelIndex": 12,
        "type": "filled_contour",
        "hasHoles": true,
        "polygonIndex": 0
      },
      "geometry": {
        "type": "Polygon",
        "coordinates": [
          [
            [
              130,
              386.3693367817734
            ],
            [
              140,
              386.5327676234198
            ],
            [
              150,
              389.4278411655728
            ],
            [
              151.1669541236522,
              390
            ],
            [
              160,
              394.3637616921053
            ],
            [
              170,
              399.35465824813554
            ],
            [
              171.27571832793936,
              400
            ],
            [
              180,
              403.83281790718615
            ],
            [
              190,
              407.67796791645185
            ],
            [
              196.24387285002456,
              410
            ],
            [
              200,
              411.3416879964918
            ],
            [
              210,
              415.3178700991381
            ],
            [
              220,
              420.3065855000036
            ],
            [
              230,
              428.39105693218914
            ],
            [
              231.44083387670122,
              430
            ],
            [
              237.3950449504676,
              440
            ],
            [
              240,
              448.18531754906843
            ],
            [
              240.4864486025195,
              450
            ],
            [
              241.50801639076272,
              460
            ],
            [
              240.86021421041644,
              470
            ],
            [
              240,
              473.44130800869027
            ],
            [
              237.95696822266007,
              480
            ],
            [
              231.5831692230439,
              490
            ],
            [
              230,
              491.6162615287191
            ],
            [
              219.32749334821773,
              500
            ],
            [
              210,
              505.51914450938705
            ],
            [
              202.33591533220417,
              510
            ],
            [
              200,
              511.3826079199115
            ],
            [
              190,
              517.823694135161
            ],
            [
              186.9001007268518,
              520
            ],
            [
              180,
              524.9638512329102
            ],
            [
              172.8693282395576,
              530
            ],
            [
              170,
              531.871248395205
            ],
            [
              160,
              537.1881927782927
            ],
            [
              152.28596822597854,
              540
            ],
            [
              150,
              540.6788216161605
            ],
            [
              140,
              542.153256121872
            ],
            [
              130,
              542.0723740382864
            ],
            [
              120,
              540.4108329112817
            ],
            [
              118.7571527465264,
              540
            ],
            [
              110,
              536.2789756938811
            ],
            [
              100,
              529.4496183858372
            ],
            [
              91.63247962307246,
              520
            ],
            [
              90,
              517.6500435542143
            ],
            [
              84.85860739533348,
              510
            ],
            [
              80,
              502.3312014350608
            ],
            [
              78.37084807543658,
              500
            ],
            [
              71.21640277956287,
              490
            ],
            [
              70,
              488.28394012653195
            ],
            [
              63.2644158960082,
              480
            ],
            [
              60,
              475.35404028232756
            ],
            [
              56.33121722852633,
              470
            ],
            [
              52.97179095565579,
              460
            ],
            [
              54.70323565127397,
              450
            ],
            [
              60,
              442.6984083001711
            ],
            [
              62.680571701709766,
              440
            ],
            [
              70,
              434.92903297307487
            ],
            [
              77.59164113230669,
              430
            ],
            [
              80,
              428.48922089393346
            ],
            [
              90,
              421.18949655182314
            ],
            [
              91.3334192060799,
              420
            ],
            [
              100.25230748719684,
              410.3151454912082
            ],
            [
              108.50846205740572,
              400
            ],
            [
              110,
              398.3119606319763
            ],
            [
              120,
              389.6286572294953
            ],
            [
              130,
              386.3693367817734
            ]
          ],
          [
            [
              160,
              427.03768989326176
            ],
            [
              153.32233684320568,
              430
            ],
            [
              150,
              432.33366667603275
            ],
            [
              142.93475811526338,
              440
            ],
            [
              140,
              443.9811183918112
            ],
            [
              135.55976315494632,
              450
            ],
            [
              130,
              456.78426626302667
            ],
            [
              126.81611130773655,
              460
            ],
            [
              120,
              466.3026384350191
            ],
            [
              115.67183549619254,
              470
            ],
            [
              110,
              476.3742219758811
            ],
            [
              107.57220655812216,
              480
            ],
            [
              105.19305161020503,
              490
            ],
            [
              106.45212097207624,
              500
            ],
            [
              110,
              508.690861405555
            ],
            [
              110.63771023274792,
              510
            ],
            [
              120,
              519.460765517334
            ],
            [
              120.9710184923608,
              520
            ],
            [
              130,
              522.9768549435381
            ],
            [
              140,
              523.174858183967
            ],
            [
              150,
              520.6675710048905
            ],
            [
              151.42243661631198,
              520
            ],
            [
              160,
              515.0317855123028
            ],
            [
              167.70252096957506,
              510
            ],
            [
              170,
              508.3991405968799
            ],
            [
              180,
              501.78542865082056
            ],
            [
              182.9455174790081,
              500
            ],
            [
              190,
              495.800401416116
            ],
            [
              200,
              490.27802486168923
            ],
            [
              210,
              483.20797798179643
            ],
            [
              213.63761952049845,
              480
            ],
            [
              220,
              471.24455312292685
            ],
            [
              220.67943225671252,
              470
            ],
            [
              222.71873259729642,
              460
            ],
            [
              221.3085983769295,
              450
            ],
            [
              220,
              447.3211735475703
            ],
            [
              215.02609772851088,
              440
            ],
            [
              210,
              435.7154814670356
            ],
            [
              200,
              430.0975765994878
            ],
            [
              190,
              427.29534178012415
            ],
            [
              180,
              425.74424869518134
            ],
            [
              170,
              425.4637409266026
            ],
            [
              160,
              427.03768989326176
            ]
          ]
        ]
      }
    },
    {
      "type": "Feature",
      "properties": {
        "value": 90,
        "level": 90,
        "levelIndex": 13,
        "type": "filled_contour",
        "hasHoles": false,
        "polygonIndex": 0
      },
      "geometry": {
        "type": "Polygon",
        "coordinates": [
          [
            [
              170,
              425.4637409266026
            ],
            [
              180,
              425.74424869518134
            ],
            [
              190,
              427.29534178012415
            ],
            [
              200,
              430.0975765994878
            ],
            [
              210,
              435.7154814670356
            ],
            [
              215.02609772851088,
              440
            ],
            [
              220,
              447.3211735475703
            ],
            [
              221.3085983769295,
              450
            ],
            [
              222.71873259729642,
              460
            ],
            [
              220.67943225671252,
              470
            ],
            [
              220,
              471.24455312292685
            ],
            [
              213.63761952049845,
              480
            ],
            [
              210,
              483.20797798179643
            ],
            [
              200,
              490.27802486168923
            ],
            [
              190,
              495.800401416116
            ],
            [
              182.9455174790081,
              500
            ],
            [
              180,
              501.78542865082056
            ],
            [
              170,
              508.3991405968799
            ],
            [
              167.70252096957506,
              510
            ],
            [
              160,
              515.0317855123028
            ],
            [
              151.42243661631198,
              520
            ],
            [
              150,
              520.6675710048905
            ],
            [
              140,
              523.174858183967
            ],
            [
              130,
              522.9768549435381
            ],
            [
              120.9710184923608,
              520
            ],
            [
              120,
              519.460765517334
            ],
            [
              110.63771023274792,
              510
            ],
            [
              110,
              508.690861405555
            ],
            [
              106.45212097207624,
              500
            ],
            [
              105.19305161020503,
              490
            ],
            [
              107.57220655812216,
              480
            ],
            [
              110,
              476.3742219758811
            ],
            [
              115.67183549619254,
              470
            ],
            [
              120,
              466.3026384350191
            ],
            [
              126.81611130773655,
              460
            ],
            [
              130,
              456.78426626302667
            ],
            [
              135.55976315494632,
              450
            ],
            [
              140,
              443.9811183918112
            ],
            [
              142.93475811526338,
              440
            ],
            [
              150,
              432.33366667603275
            ],
            [
              153.32233684320568,
              430
            ],
            [
              160,
              427.03768989326176
            ],
            [
              170,
              425.4637409266026
            ]
          ]
        ]
      }
    }
  ]
}