{
  "type": "FeatureCollection",
  "features": [
    {
      "type": "Feature",
      "properties": {
        "elevation": 0,
        "level": 0,
        "levelIndex": 0,
        "pathIndex": 0,
        "type": "linestring_edge",
        "closed": false
      },
      "geometry": {
        "type": "LineString",
        "coordinates": [
          [
            116.31025641025641,
            39.9
          ],
          [
            116.3051282051282,
            39.90344827586207
          ],
          [
            116.3051282051282,
            39.90689655172414
          ],
          [
            116.3051282051282,
            39.91034482758621
          ],
          [
            116.3,
            39.91379310344828
          ],
          [
            116.3,
            39.91724137931034
          ],
          [
            116.3,
            39.92068965517241
          ]
        ]
      }
    },
    {
      "type": "Feature",
      "properties": {
        "elevation": 0,
        "level": 0,
        "levelIndex": 0,
        "pathIndex": 1,
        "type": "linestring_edge",
        "closed": false
      },
      "geometry": {
        "type": "LineString",
        "coordinates": [
          [
            116.5,
            39.93103448275862
          ],
          [
            116.5,
            39.92758620689655
          ],
          [
            116.5,
            39.92413793103448
          ],
          [
            116.5,
            39.92068965517241
          ],
          [
            116.5,
            39.91724137931034
          ],
          [
            116.5,
            39.91379310344828
          ],
          [
            116.4948717948718,
            39.91034482758621
          ],
          [
            116.4948717948718,
            39.90689655172414
          ],
          [
            116.4948717948718,
            39.90344827586207
          ],
          [
            116.4948717948718,
            39.9
          ]
        ]
      }
    },
    {
      "type": "Feature",
      "properties": {
        "elevation": 0,
        "level": 0,
        "levelIndex": 0,
        "pathIndex": 2,
        "type": "linestring_edge",
        "closed": false
      },
      "geometry": {
        "type": "LineString",
        "coordinates": [
          [
            116.3,
            39.97586206896552
          ],
          [
            116.3,
            39.97931034482759
          ],
          [
            116.3,
            39.98275862068966
          ],
          [
            116.3,
            39.98620689655172
          ],
          [
            116.3,
            39.98965517241379
          ],
          [
            116.3,
            39.99310344827586
          ],
          [
            116.3051282051282,
            39.99655172413793
          ],
          [
            116.31025641025641,
            40
          ]
        ]
      }
    },
    {
      "type": "Feature",
      "properties": {
        "elevation": 0,
        "level": 0,
        "levelIndex": 0,
        "pathIndex": 3,
        "type": "linestring_edge",
        "closed": false
      },
      "geometry": {
        "type": "LineString",
        "coordinates": [
          [
            116.48974358974358,
            40
          ],
          [
            116.4948717948718,
            39.99655172413793
          ],
          [
            116.5,
            39.99310344827586
          ],
          [
            116.4948717948718,
            39.98965517241379
          ],
          [
            116.5,
            39.98620689655172
          ],
          [
            116.5,
            39.98275862068966
          ],
          [
            116.5,
            39.97931034482759
          ],
          [
            116.5,
            39.97586206896552
          ]
        ]
      }
    },
    {
      "type": "Feature",
      "properties": {
        "elevation": 10,
        "level": 10,
        "levelIndex": 1,
        "pathIndex": 0,
        "type": "linestring_edge",
        "closed": false
      },
      "geometry": {
        "type": "LineString",
        "coordinates": [
          [
            116.32218614208132,
            39.9
          ],
          [
            116.32051282051282,
            39.902371235427
          ],
          [
            116.32012680618575,
            39.90344827586207
          ],
          [
            116.3186331911794,
            39.90689655172414
          ],
          [
            116.31538461538462,
            39.90963885435214
          ],
          [
            116.31431202905893,
            39.91034482758621
          ],
          [
            116.31538461538462,
            39.91314847417424
          ],
          [
            116.31586911089839,
            39.91379310344828
          ],
          [
            116.31538461538462,
            39.9140244677797
          ],
          [
            116.31137097194008,
            39.91724137931034
          ],
          [
            116.31148106283023,
            39.92068965517241
          ],
          [
            116.31025641025641,
            39.92184210720192
          ],
          [
            116.30945766170882,
            39.92413793103448
          ],
          [
            116.31025641025641,
            39.92539214274709
          ],
          [
            116.31162286265713,
            39.92758620689655
          ],
          [
            116.31025641025641,
            39.93000680737414
          ],
          [
            116.30945904608114,
            39.93103448275862
          ],
          [
            116.31025641025641,
            39.93388700657819
          ],
          [
            116.3103237093844,
            39.934569157298355
          ],
          [
            116.30694912575728,
            39.93793103448276
          ],
          [
            116.30850579104376,
            39.94137931034483
          ],
          [
            116.30968944560736,
            39.9448275862069
          ],
          [
            116.3073320869859,
            39.94827586206897
          ],
          [
            116.30738631073672,
            39.95172413793103
          ],
          [
            116.30759732639885,
            39.9551724137931
          ],
          [
            116.3065267974158,
            39.95862068965517
          ],
          [
            116.3077419765204,
            39.96206896551724
          ],
          [
            116.30810843205482,
            39.96551724137931
          ],
          [
            116.30904998654779,
            39.96896551724138
          ],
          [
            116.31025641025641,
            39.97031043987036
          ],
          [
            116.31114274382008,
            39.97241379310345
          ],
          [
            116.31351501275297,
            39.97586206896552
          ],
          [
            116.31177443110661,
            39.97931034482759
          ],
          [
            116.31379679011675,
            39.98275862068966
          ],
          [
            116.31538461538462,
            39.98577169147866
          ],
          [
            116.31572172645582,
            39.98620689655172
          ],
          [
            116.31724027056472,
            39.98965517241379
          ],
          [
            116.31645868092352,
            39.99310344827586
          ],
          [
            116.31885720199296,
            39.99655172413793
          ],
          [
            116.32051282051282,
            39.99838271782897
          ],
          [
            116.32251022756441,
            40
          ]
        ]
      }
    },
    {
      "type": "Feature",
      "properties": {
        "elevation": 10,
        "level": 10,
        "levelIndex": 1,
        "pathIndex": 1,
        "type": "linestring_edge",
        "closed": false
      },
      "geometry": {
        "type": "LineString",
        "coordinates": [
          [
            116.47869397861795,
            40
          ],
          [
            116.47948717948718,
            39.9988107587673
          ],
          [
            116.48051810152461,
            39.99655172413793
          ],
          [
            116.47948717948718,
            39.99393385334071
          ],
          [
            116.47924062082504,
            39.99310344827586
          ],
          [
            116.47948717948718,
            39.99277694510115
          ],
          [
            116.48280846472255,
            39.98965517241379
          ],
          [
            116.48359185019737,
            39.98620689655172
          ],
          [
            116.48461538461538,
            39.98520890989363
          ],
          [
            116.48784483367291,
            39.98275862068966
          ],
          [
            116.48787532126113,
            39.97931034482759
          ],
          [
            116.48942801549893,
            39.97586206896552
          ],
          [
            116.48856334366552,
            39.97241379310345
          ],
          [
            116.48960658904396,
            39.96896551724138
          ],
          [
            116.48954204897893,
            39.96551724137931
          ],
          [
            116.48974358974358,
            39.96467748069473
          ],
          [
            116.4919259701855,
            39.96206896551724
          ],
          [
            116.49060969258807,
            39.95862068965517
          ],
          [
            116.49270424798564,
            39.9551724137931
          ],
          [
            116.49267875206519,
            39.95172413793103
          ],
          [
            116.49039107709285,
            39.94827586206897
          ],
          [
            116.49251363186073,
            39.9448275862069
          ],
          [
            116.49317877914149,
            39.94137931034483
          ],
          [
            116.49207360364963,
            39.93793103448276
          ],
          [
            116.49137005819485,
            39.93448275862069
          ],
          [
            116.49128526565653,
            39.93103448275862
          ],
          [
            116.49106905991398,
            39.92758620689655
          ],
          [
            116.48974358974358,
            39.924170065936885
          ],
          [
            116.48657893675355,
            39.92068965517241
          ],
          [
            116.48576661817613,
            39.91724137931034
          ],
          [
            116.4859889878762,
            39.91379310344828
          ],
          [
            116.48461538461538,
            39.911425815538806
          ],
          [
            116.48388870684245,
            39.91034482758621
          ],
          [
            116.48432243936425,
            39.90689655172414
          ],
          [
            116.48096767356914,
            39.90344827586207
          ],
          [
            116.4803357397516,
            39.9
          ]
        ]
      }
    },
    {
      "type": "Feature",
      "properties": {
        "elevation": 20,
        "level": 20,
        "levelIndex": 2,
        "pathIndex": 0,
        "type": "linestring_edge",
        "closed": false
      },
      "geometry": {
        "type": "LineString",
        "coordinates": [
          [
            116.33350698916462,
            39.9
          ],
          [
            116.33076923076923,
            39.902692053001104
          ],
          [
            116.32990763909493,
            39.90344827586207
          ],
          [
            116.32940302266353,
            39.90689655172414
          ],
          [
            116.32652339520935,
            39.91034482758621
          ],
          [
            116.32564102564102,
            39.91150194064858
          ],
          [
            116.32457931215885,
            39.91379310344828
          ],
          [
            116.32288208332815,
            39.91724137931034
          ],
          [
            116.3218103713981,
            39.92068965517241
          ],
          [
            116.32051282051282,
            39.92251383672421
          ],
          [
            116.32003490759465,
            39.92413793103448
          ],
          [
            116.31940175980161,
            39.92758620689655
          ],
          [
            116.32020529838314,
            39.93103448275862
          ],
          [
            116.31902170448937,
            39.93448275862069
          ],
          [
            116.32051282051282,
            39.9369071297011
          ],
          [
            116.32067413746242,
            39.93793103448276
          ],
          [
            116.32051282051282,
            39.938131815415524
          ],
          [
            116.31742962027175,
            39.94137931034483
          ],
          [
            116.31776489691217,
            39.9448275862069
          ],
          [
            116.31538461538462,
            39.94818081340454
          ],
          [
            116.31538461538462,
            39.94920709451588
          ],
          [
            116.31602331142457,
            39.95172413793103
          ],
          [
            116.3159115529412,
            39.9551724137931
          ],
          [
            116.31863389199368,
            39.95862068965517
          ],
          [
            116.3174185871625,
            39.96206896551724
          ],
          [
            116.31713138778379,
            39.96551724137931
          ],
          [
            116.31877520992094,
            39.96896551724138
          ],
          [
            116.31961549069892,
            39.97241379310345
          ],
          [
            116.32051282051282,
            39.97365388165383
          ],
          [
            116.32196489794894,
            39.97586206896552
          ],
          [
            116.32222705335309,
            39.97931034482759
          ],
          [
            116.32564102564102,
            39.98198960328398
          ],
          [
            116.3264128367564,
            39.98275862068966
          ],
          [
            116.32564102564102,
            39.98447448827198
          ],
          [
            116.32479846588532,
            39.98620689655172
          ],
          [
            116.32564102564102,
            39.98705409836376
          ],
          [
            116.32858017036698,
            39.98965517241379
          ],
          [
            116.33076923076923,
            39.992098594449836
          ],
          [
            116.33164897272593,
            39.99310344827586
          ],
          [
            116.33294047691467,
            39.99655172413793
          ],
          [
            116.33441997089767,
            40
          ]
        ]
      }
    },
    {
      "type": "Feature",
      "properties": {
        "elevation": 20,
        "level": 20,
        "levelIndex": 2,
        "pathIndex": 1,
        "type": "linestring_edge",
        "closed": false
      },
      "geometry": {
        "type": "LineString",
        "coordinates": [
          [
            116.46511085496479,
            40
          ],
          [
            116.46923076923076,
            39.998876800521145
          ],
          [
            116.47063725116949,
            39.99655172413793
          ],
          [
            116.46923076923076,
            39.99390859661063
          ],
          [
            116.46896741767526,
            39.99310344827586
          ],
          [
            116.46923076923076,
            39.99280771598742
          ],
          [
            116.473935731576,
            39.98965517241379
          ],
          [
            116.47243204439887,
            39.98620689655172
          ],
          [
            116.47435897435898,
            39.98322795726284
          ],
          [
            116.47467713788727,
            39.98275862068966
          ],
          [
            116.4773524423099,
            39.97931034482759
          ],
          [
            116.47763082314826,
            39.97586206896552
          ],
          [
            116.47948717948718,
            39.973021223407684
          ],
          [
            116.48025552933008,
            39.97241379310345
          ],
          [
            116.48186610080501,
            39.96896551724138
          ],
          [
            116.48260236261154,
            39.96551724137931
          ],
          [
            116.4814271295646,
            39.96206896551724
          ],
          [
            116.48308023976985,
            39.95862068965517
          ],
          [
            116.48281544578413,
            39.9551724137931
          ],
          [
            116.48164683084929,
            39.95172413793103
          ],
          [
            116.48071054862612,
            39.94827586206897
          ],
          [
            116.4828882289838,
            39.9448275862069
          ],
          [
            116.48248202740618,
            39.94137931034483
          ],
          [
            116.48169219673488,
            39.93793103448276
          ],
          [
            116.48015582664245,
            39.93448275862069
          ],
          [
            116.4816712907879,
            39.93103448275862
          ],
          [
            116.47948717948718,
            39.929096780063645
          ],
          [
            116.47820879066578,
            39.92758620689655
          ],
          [
            116.47773330855239,
            39.92413793103448
          ],
          [
            116.47752481794946,
            39.92068965517241
          ],
          [
            116.47594003123606,
            39.91724137931034
          ],
          [
            116.47435897435898,
            39.91510591062848
          ],
          [
            116.47355877716393,
            39.91379310344828
          ],
          [
            116.46979703110961,
            39.91034482758621
          ],
          [
            116.4708229727801,
            39.90689655172414
          ],
          [
            116.46923076923076,
            39.904765447275715
          ],
          [
            116.46587099512007,
            39.90344827586207
          ],
          [
            116.46576103902296,
            39.9
          ]
        ]
      }
    },
    {
      "type": "Feature",
      "properties": {
        "elevation": 30,
        "level": 30,
        "levelIndex": 3,
        "pathIndex": 0,
        "type": "linestring_edge",
        "closed": false
      },
      "geometry": {
        "type": "LineString",
        "coordinates": [
          [
            116.34490116218078,
            39.9
          ],
          [
            116.34615384615384,
            39.90224320069506
          ],
          [
            116.3466090814369,
            39.90344827586207
          ],
          [
            116.34615384615384,
            39.903910130813095
          ],
          [
            116.34270494209647,
            39.90689655172414
          ],
          [
            116.34095341773187,
            39.910267750139
          ],
          [
            116.33932794682445,
            39.91379310344828
          ],
          [
            116.33708125729102,
            39.91724137931034
          ],
          [
            116.33589743589744,
            39.919520927781896
          ],
          [
            116.33495249532136,
            39.92068965517241
          ],
          [
            116.33204142951166,
            39.92413793103448
          ],
          [
            116.33212379179601,
            39.92758620689655
          ],
          [
            116.33076923076923,
            39.93002408149795
          ],
          [
            116.32990840619604,
            39.93103448275862
          ],
          [
            116.32878899436295,
            39.93448275862069
          ],
          [
            116.32735265634128,
            39.93793103448276
          ],
          [
            116.32874851944783,
            39.94137931034483
          ],
          [
            116.32600560106276,
            39.9448275862069
          ],
          [
            116.32663386884526,
            39.94827586206897
          ],
          [
            116.32645701547514,
            39.95172413793103
          ],
          [
            116.32808021493008,
            39.9551724137931
          ],
          [
            116.3281001471338,
            39.95862068965517
          ],
          [
            116.3291044996854,
            39.96206896551724
          ],
          [
            116.32753857444966,
            39.96551724137931
          ],
          [
            116.3295860920922,
            39.96896551724138
          ],
          [
            116.33076923076923,
            39.97237318615836
          ],
          [
            116.3321918234044,
            39.97586206896552
          ],
          [
            116.33336977299427,
            39.97931034482759
          ],
          [
            116.33589743589744,
            39.98196092095375
          ],
          [
            116.3365988082522,
            39.98275862068966
          ],
          [
            116.33956431550325,
            39.98620689655172
          ],
          [
            116.3392694860114,
            39.98965517241379
          ],
          [
            116.34102564102564,
            39.99027171137815
          ],
          [
            116.34386032154002,
            39.99310344827586
          ],
          [
            116.34456443288025,
            39.99655172413793
          ],
          [
            116.34615384615384,
            39.99788216400786
          ],
          [
            116.34788006140491,
            40
          ]
        ]
      }
    },
    {
      "type": "Feature",
      "properties": {
        "elevation": 30,
        "level": 30,
        "levelIndex": 3,
        "pathIndex": 1,
        "type": "linestring_edge",
        "closed": false
      },
      "geometry": {
        "type": "LineString",
        "coordinates": [
          [
            116.45040080296269,
            40
          ],
          [
            116.45384615384616,
            39.9967567457045
          ],
          [
            116.45414788530098,
            39.99655172413793
          ],
          [
            116.45705724437927,
            39.99310344827586
          ],
          [
            116.45897435897436,
            39.99038379557676
          ],
          [
            116.45983049380004,
            39.98965517241379
          ],
          [
            116.4639479944055,
            39.98620689655172
          ],
          [
            116.46284486934127,
            39.98275862068966
          ],
          [
            116.46410256410256,
            39.98115703576583
          ],
          [
            116.46551699701763,
            39.97931034482759
          ],
          [
            116.46811208864621,
            39.97586206896552
          ],
          [
            116.46923076923076,
            39.97358619362067
          ],
          [
            116.4698240580629,
            39.97241379310345
          ],
          [
            116.46946694003174,
            39.96896551724138
          ],
          [
            116.4709967824966,
            39.96551724137931
          ],
          [
            116.4708154672467,
            39.96206896551724
          ],
          [
            116.47303587736026,
            39.95862068965517
          ],
          [
            116.47251444063072,
            39.9551724137931
          ],
          [
            116.47257133052739,
            39.95172413793103
          ],
          [
            116.4722860280877,
            39.94827586206897
          ],
          [
            116.4725582433358,
            39.9448275862069
          ],
          [
            116.4715227183585,
            39.94137931034483
          ],
          [
            116.4691847968981,
            39.93800012021387
          ],
          [
            116.46880308586812,
            39.93448275862069
          ],
          [
            116.46875608844614,
            39.93103448275862
          ],
          [
            116.46923076923076,
            39.93018875240719
          ],
          [
            116.47095783567636,
            39.92758620689655
          ],
          [
            116.46923076923076,
            39.92650275492629
          ],
          [
            116.46714145853781,
            39.92413793103448
          ],
          [
            116.46722469708777,
            39.92068965517241
          ],
          [
            116.4642174476369,
            39.91718915173233
          ],
          [
            116.46083826596038,
            39.91379310344828
          ],
          [
            116.46240653832714,
            39.91034482758621
          ],
          [
            116.45950993396787,
            39.90689655172414
          ],
          [
            116.45897435897436,
            39.904780977809054
          ],
          [
            116.45536389711019,
            39.90344827586207
          ],
          [
            116.45384615384616,
            39.90325598649579
          ],
          [
            116.45134539659709,
            39.9
          ]
        ]
      }
    },
    {
      "type": "Feature",
      "properties": {
        "elevation": 40,
        "level": 40,
        "levelIndex": 4,
        "pathIndex": 0,
        "type": "linestring_edge",
        "closed": false
      },
      "geometry": {
        "type": "LineString",
        "coordinates": [
          [
            116.35970605866353,
            39.9
          ],
          [
            116.35763065528747,
            39.90344827586207
          ],
          [
            116.35795164220198,
            39.90689655172414
          ],
          [
            116.35641025641026,
            39.908658374692465
          ],
          [
            116.35161450689587,
            39.91034482758621
          ],
          [
            116.35128205128206,
            39.910480992850026
          ],
          [
            116.34881631700637,
            39.91379310344828
          ],
          [
            116.34615384615384,
            39.916028478330674
          ],
          [
            116.34521182271364,
            39.91724137931034
          ],
          [
            116.34445050496453,
            39.92068965517241
          ],
          [
            116.34102564102564,
            39.92377904370845
          ],
          [
            116.34068074835942,
            39.92413793103448
          ],
          [
            116.34102564102564,
            39.92731865296
          ],
          [
            116.34106594141366,
            39.92758620689655
          ],
          [
            116.34102564102564,
            39.92790123567399
          ],
          [
            116.34031187616777,
            39.93103448275862
          ],
          [
            116.33934484074686,
            39.93448275862069
          ],
          [
            116.33844055051767,
            39.93793103448276
          ],
          [
            116.33822014654837,
            39.94137931034483
          ],
          [
            116.33589743589744,
            39.94451583078819
          ],
          [
            116.33558586038545,
            39.9448275862069
          ],
          [
            116.33589743589744,
            39.94517071427368
          ],
          [
            116.33774238752287,
            39.94827586206897
          ],
          [
            116.33785322525503,
            39.95172413793103
          ],
          [
            116.33838678980112,
            39.9551724137931
          ],
          [
            116.34043447660149,
            39.95862068965517
          ],
          [
            116.3384223200654,
            39.96206896551724
          ],
          [
            116.34102564102564,
            39.9645852896156
          ],
          [
            116.34168479162307,
            39.96551724137931
          ],
          [
            116.34159576667665,
            39.96896551724138
          ],
          [
            116.34296439972343,
            39.97241379310345
          ],
          [
            116.34315627731493,
            39.97586206896552
          ],
          [
            116.34379048892589,
            39.97931034482759
          ],
          [
            116.34615384615384,
            39.981477324599204
          ],
          [
            116.34831344759976,
            39.98275862068966
          ],
          [
            116.34935157683566,
            39.98620689655172
          ],
          [
            116.35043850318084,
            39.98965517241379
          ],
          [
            116.35128205128206,
            39.99127373981592
          ],
          [
            116.35303256317741,
            39.99310344827586
          ],
          [
            116.35641025641026,
            39.99494808419951
          ],
          [
            116.3593376912284,
            39.99655172413793
          ],
          [
            116.36153846153846,
            39.99793725259714
          ],
          [
            116.36493072898597,
            40
          ]
        ]
      }
    },
    {
      "type": "Feature",
      "properties": {
        "elevation": 40,
        "level": 40,
        "levelIndex": 4,
        "pathIndex": 1,
        "type": "linestring_edge",
        "closed": false
      },
      "geometry": {
        "type": "LineString",
        "coordinates": [
          [
            116.4371420252961,
            40
          ],
          [
            116.43846153846154,
            39.9990429992469
          ],
          [
            116.44161154076863,
            39.99655172413793
          ],
          [
            116.44358974358974,
            39.99404009962884
          ],
          [
            116.44498046384348,
            39.99310344827586
          ],
          [
            116.44748222682213,
            39.98965517241379
          ],
          [
            116.44871794871794,
            39.988617401657834
          ],
          [
            116.4517918658143,
            39.98620689655172
          ],
          [
            116.45384615384616,
            39.98409623705086
          ],
          [
            116.45492822062252,
            39.98275862068966
          ],
          [
            116.45583082812306,
            39.97931034482759
          ],
          [
            116.45661693094563,
            39.97586206896552
          ],
          [
            116.4570892304979,
            39.97241379310345
          ],
          [
            116.45804390441343,
            39.96896551724138
          ],
          [
            116.45897435897436,
            39.96578874279851
          ],
          [
            116.45906170782112,
            39.96551724137931
          ],
          [
            116.46103974532316,
            39.96206896551724
          ],
          [
            116.462019321492,
            39.95862068965517
          ],
          [
            116.4632998010648,
            39.9551724137931
          ],
          [
            116.46247036771898,
            39.95172413793103
          ],
          [
            116.46132467069518,
            39.94827586206897
          ],
          [
            116.46338221007959,
            39.9448275862069
          ],
          [
            116.46410256410256,
            39.94239795564021
          ],
          [
            116.46432629071073,
            39.94137931034483
          ],
          [
            116.46410256410256,
            39.940905498232844
          ],
          [
            116.46212509396497,
            39.93793103448276
          ],
          [
            116.45893888838657,
            39.934540950021066
          ],
          [
            116.45861030239217,
            39.93103448275862
          ],
          [
            116.45897435897436,
            39.93000442630874
          ],
          [
            116.45970077527124,
            39.92758620689655
          ],
          [
            116.45897435897436,
            39.924447504867
          ],
          [
            116.45849670541875,
            39.92413793103448
          ],
          [
            116.45597440699997,
            39.92068965517241
          ],
          [
            116.45384615384616,
            39.917644173419376
          ],
          [
            116.4536385906164,
            39.91724137931034
          ],
          [
            116.45012921951005,
            39.91379310344828
          ],
          [
            116.44874053623482,
            39.910278412803436
          ],
          [
            116.44672220061268,
            39.90689655172414
          ],
          [
            116.44358974358974,
            39.9051351052881
          ],
          [
            116.44161932092476,
            39.90344827586207
          ],
          [
            116.43904475261384,
            39.9
          ]
        ]
      }
    },
    {
      "type": "Feature",
      "properties": {
        "elevation": 50,
        "level": 50,
        "levelIndex": 5,
        "pathIndex": 0,
        "type": "linestring_edge",
        "closed": false
      },
      "geometry": {
        "type": "LineString",
        "coordinates": [
          [
            116.3800892210586,
            39.9
          ],
          [
            116.37692307692308,
            39.90204259896131
          ],
          [
            116.37552680096346,
            39.90344827586207
          ],
          [
            116.37207331490055,
            39.90689655172414
          ],
          [
            116.37179487179488,
            39.90712437739883
          ],
          [
            116.36666666666666,
            39.90887405148099
          ],
          [
            116.36448393183193,
            39.91034482758621
          ],
          [
            116.36153846153846,
            39.91266720438519
          ],
          [
            116.35997509681036,
            39.91379310344828
          ],
          [
            116.36153846153846,
            39.91676033107284
          ],
          [
            116.36175082073649,
            39.91724137931034
          ],
          [
            116.36153846153846,
            39.91751169117253
          ],
          [
            116.35850340537365,
            39.92068965517241
          ],
          [
            116.35641025641026,
            39.92264311834327
          ],
          [
            116.35225920162574,
            39.92413793103448
          ],
          [
            116.3524304940589,
            39.92758620689655
          ],
          [
            116.35234765084047,
            39.93103448275862
          ],
          [
            116.35159415416149,
            39.93448275862069
          ],
          [
            116.35128205128206,
            39.93475794491435
          ],
          [
            116.34651194747202,
            39.93793103448276
          ],
          [
            116.34800143479146,
            39.94137931034483
          ],
          [
            116.34947232074379,
            39.9448275862069
          ],
          [
            116.34620647131143,
            39.94827586206897
          ],
          [
            116.3467221427494,
            39.95172413793103
          ],
          [
            116.34708692980806,
            39.9551724137931
          ],
          [
            116.34801762723689,
            39.95862068965517
          ],
          [
            116.34901478522062,
            39.96206896551724
          ],
          [
            116.35007194867134,
            39.96551724137931
          ],
          [
            116.35128205128206,
            39.96869161130507
          ],
          [
            116.35150457327,
            39.96896551724138
          ],
          [
            116.35273669718882,
            39.97241379310345
          ],
          [
            116.35641025641026,
            39.97576495347937
          ],
          [
            116.35746768898582,
            39.97931034482759
          ],
          [
            116.3587093653206,
            39.98275862068966
          ],
          [
            116.35974491741564,
            39.98620689655172
          ],
          [
            116.36153846153846,
            39.98681771262169
          ],
          [
            116.36666666666666,
            39.98839468949359
          ],
          [
            116.36821296140488,
            39.98965517241379
          ],
          [
            116.36752700109619,
            39.99310344827586
          ],
          [
            116.37179487179488,
            39.9942141742196
          ],
          [
            116.3760752603331,
            39.99655172413793
          ],
          [
            116.37692307692308,
            39.999636458149325
          ],
          [
            116.37732013375772,
            40
          ]
        ]
      }
    },
    {
      "type": "Feature",
      "properties": {
        "elevation": 50,
        "level": 50,
        "levelIndex": 5,
        "pathIndex": 1,
        "type": "linestring_edge",
        "closed": false
      },
      "geometry": {
        "type": "LineString",
        "coordinates": [
          [
            116.4121800381363,
            40
          ],
          [
            116.41282051282052,
            39.99979583856182
          ],
          [
            116.4136623830327,
            40
          ]
        ]
      }
    },
    {
      "type": "Feature",
      "properties": {
        "elevation": 50,
        "level": 50,
        "levelIndex": 5,
        "pathIndex": 2,
        "type": "linestring_edge",
        "closed": false
      },
      "geometry": {
        "type": "LineString",
        "coordinates": [
          [
            116.42153791495619,
            40
          ],
          [
            116.42167810973702,
            39.99655172413793
          ],
          [
            116.42307692307692,
            39.99609065146151
          ],
          [
            116.42820512820512,
            39.99383791336395
          ],
          [
            116.4300876499583,
            39.99310344827586
          ],
          [
            116.43333333333334,
            39.9922421488707
          ],
          [
            116.43619848724114,
            39.98965517241379
          ],
          [
            116.43846153846154,
            39.98738269978068
          ],
          [
            116.43930117394939,
            39.98620689655172
          ],
          [
            116.43846153846154,
            39.98371979548918
          ],
          [
            116.43821965259605,
            39.98275862068966
          ],
          [
            116.43846153846154,
            39.982550268835055
          ],
          [
            116.44233067110528,
            39.97931034482759
          ],
          [
            116.44358974358974,
            39.977308056764976
          ],
          [
            116.44559919264768,
            39.97586206896552
          ],
          [
            116.44703988604171,
            39.97241379310345
          ],
          [
            116.44653592370938,
            39.96896551724138
          ],
          [
            116.44871794871794,
            39.967204708651764
          ],
          [
            116.45079739755904,
            39.96551724137931
          ],
          [
            116.44994356706641,
            39.96206896551724
          ],
          [
            116.45150520758651,
            39.95862068965517
          ],
          [
            116.4531606777059,
            39.9551724137931
          ],
          [
            116.45343190644925,
            39.95172413793103
          ],
          [
            116.45180423005596,
            39.94827586206897
          ],
          [
            116.45384615384616,
            39.94641426262784
          ],
          [
            116.4544544495601,
            39.9448275862069
          ],
          [
            116.45384615384616,
            39.942071506929864
          ],
          [
            116.45330119181085,
            39.94137931034483
          ],
          [
            116.45294272101255,
            39.93793103448276
          ],
          [
            116.45108628143325,
            39.93448275862069
          ],
          [
            116.44871794871794,
            39.93230409623746
          ],
          [
            116.44707506151127,
            39.93103448275862
          ],
          [
            116.44669544669753,
            39.92758620689655
          ],
          [
            116.44490414102208,
            39.92413793103448
          ],
          [
            116.44358974358974,
            39.92332634006629
          ],
          [
            116.44187295616466,
            39.92068965517241
          ],
          [
            116.44046122113504,
            39.91724137931034
          ],
          [
            116.43846153846154,
            39.91436769215246
          ],
          [
            116.43804412211469,
            39.91379310344828
          ],
          [
            116.43432757335324,
            39.91034482758621
          ],
          [
            116.43333333333334,
            39.908662114498185
          ],
          [
            116.42820512820512,
            39.90760443603359
          ],
          [
            116.42757700754032,
            39.90689655172414
          ],
          [
            116.42307692307692,
            39.90402845751241
          ],
          [
            116.42102573918024,
            39.90344827586207
          ],
          [
            116.41794871794872,
            39.9014025688811
          ],
          [
            116.41282051282052,
            39.9008755099845
          ],
          [
            116.41047812993583,
            39.9
          ]
        ]
      }
    },
    {
      "type": "Feature",
      "properties": {
        "elevation": 60,
        "level": 60,
        "levelIndex": 6,
        "pathIndex": 0,
        "type": "linestring",
        "closed": true
      },
      "geometry": {
        "type": "LineString",
        "coordinates": [
          [
            116.4025641025641,
            39.90609652507203
          ],
          [
            116.40060979953344,
            39.90689655172414
          ],
          [
            116.3974358974359,
            39.909916048173386
          ],
          [
            116.3923076923077,
            39.90918841518029
          ],
          [
            116.38717948717948,
            39.90865491035335
          ],
          [
            116.38205128205128,
            39.91032796050237
          ],
          [
            116.37946014623392,
            39.91379310344828
          ],
          [
            116.37692307692308,
            39.91621058699525
          ],
          [
            116.37179487179488,
            39.91668192275853
          ],
          [
            116.37045050343082,
            39.91724137931034
          ],
          [
            116.37179487179488,
            39.91973545162856
          ],
          [
            116.37211135813115,
            39.92068965517241
          ],
          [
            116.37179487179488,
            39.920903132413414
          ],
          [
            116.3676640735345,
            39.92413793103448
          ],
          [
            116.36666666666666,
            39.925431715006916
          ],
          [
            116.3639350244217,
            39.92758620689655
          ],
          [
            116.36384396774056,
            39.93103448275862
          ],
          [
            116.36177222501048,
            39.93448275862069
          ],
          [
            116.36157356823878,
            39.93803055727294
          ],
          [
            116.35683361254085,
            39.94137931034483
          ],
          [
            116.35940649800017,
            39.9448275862069
          ],
          [
            116.35683691105852,
            39.94827586206897
          ],
          [
            116.35882969625968,
            39.95172413793103
          ],
          [
            116.35641025641026,
            39.955159792967166
          ],
          [
            116.35996695500928,
            39.95862068965517
          ],
          [
            116.35914207675651,
            39.96206896551724
          ],
          [
            116.35936691810655,
            39.96551724137931
          ],
          [
            116.36108037698561,
            39.96896551724138
          ],
          [
            116.36153846153846,
            39.97030636260156
          ],
          [
            116.36309876250482,
            39.97241379310345
          ],
          [
            116.36666666666666,
            39.97533870477091
          ],
          [
            116.36729072309457,
            39.97586206896552
          ],
          [
            116.37019573544208,
            39.97931034482759
          ],
          [
            116.36959487448331,
            39.98275862068966
          ],
          [
            116.37179487179488,
            39.9836783808632
          ],
          [
            116.37516672809463,
            39.98620689655172
          ],
          [
            116.37692307692308,
            39.987109227186174
          ],
          [
            116.38205128205128,
            39.987699199667325
          ],
          [
            116.38444739867532,
            39.98965517241379
          ],
          [
            116.38717948717948,
            39.991327622747846
          ],
          [
            116.39159181711508,
            39.99310344827586
          ],
          [
            116.3923076923077,
            39.99378132379719
          ],
          [
            116.3974358974359,
            39.99373738201265
          ],
          [
            116.40085066129572,
            39.99310344827586
          ],
          [
            116.4025641025641,
            39.992602340620365
          ],
          [
            116.4076923076923,
            39.99022179350772
          ],
          [
            116.40930490145534,
            39.98965517241379
          ],
          [
            116.41282051282052,
            39.98877936531928
          ],
          [
            116.41556667684455,
            39.98965517241379
          ],
          [
            116.41794871794872,
            39.990447348670365
          ],
          [
            116.41905085676737,
            39.98965517241379
          ],
          [
            116.42043174093938,
            39.98620689655172
          ],
          [
            116.42307692307692,
            39.98472735356759
          ],
          [
            116.42816490959996,
            39.98275862068966
          ],
          [
            116.42912803646456,
            39.97931034482759
          ],
          [
            116.43259077394247,
            39.97586206896552
          ],
          [
            116.43333333333334,
            39.97445720277681
          ],
          [
            116.43497360569344,
            39.97241379310345
          ],
          [
            116.43842047695327,
            39.96890308665784
          ],
          [
            116.44051667767076,
            39.96551724137931
          ],
          [
            116.43914388648666,
            39.96206896551724
          ],
          [
            116.4410042589034,
            39.95862068965517
          ],
          [
            116.4422652776945,
            39.9551724137931
          ],
          [
            116.44201445504291,
            39.95172413793103
          ],
          [
            116.44126040644542,
            39.94827586206897
          ],
          [
            116.44283065128683,
            39.9448275862069
          ],
          [
            116.4399637415966,
            39.94137931034483
          ],
          [
            116.4396351447105,
            39.93793103448276
          ],
          [
            116.44002199469557,
            39.93448275862069
          ],
          [
            116.43850191010131,
            39.93092907355859
          ],
          [
            116.43628614012707,
            39.92758620689655
          ],
          [
            116.43333333333334,
            39.92448890077742
          ],
          [
            116.43288766375787,
            39.92413793103448
          ],
          [
            116.43121765147464,
            39.92068965517241
          ],
          [
            116.42820512820512,
            39.9183089885332
          ],
          [
            116.4240416755587,
            39.91724137931034
          ],
          [
            116.4252585681704,
            39.91379310344828
          ],
          [
            116.42307692307692,
            39.91159777562516
          ],
          [
            116.4208567141668,
            39.91034482758621
          ],
          [
            116.41794871794872,
            39.909509491444666
          ],
          [
            116.4128682369223,
            39.91034482758621
          ],
          [
            116.4076923076923,
            39.90941271102413
          ],
          [
            116.40401039067555,
            39.90689655172414
          ],
          [
            116.4025641025641,
            39.90609652507203
          ]
        ]
      }
    },
    {
      "type": "Feature",
      "properties": {
        "elevation": 70,
        "level": 70,
        "levelIndex": 7,
        "pathIndex": 0,
        "type": "linestring",
        "closed": true
      },
      "geometry": {
        "type": "LineString",
        "coordinates": [
          [
            116.38717948717948,
            39.919620873050306
          ],
          [
            116.38373462684757,
            39.92068965517241
          ],
          [
            116.38205128205128,
            39.922811491280434
          ],
          [
            116.37692307692308,
            39.923925045092595
          ],
          [
            116.37660803891359,
            39.92413793103448
          ],
          [
            116.37692307692308,
            39.926178225253636
          ],
          [
            116.3774881285107,
            39.92758620689655
          ],
          [
            116.37692307692308,
            39.92788318237609
          ],
          [
            116.37359772290608,
            39.93103448275862
          ],
          [
            116.37301598207816,
            39.93448275862069
          ],
          [
            116.37179487179488,
            39.93592954360939
          ],
          [
            116.36875664864311,
            39.93793103448276
          ],
          [
            116.36830760780072,
            39.94137931034483
          ],
          [
            116.36903129709708,
            39.9448275862069
          ],
          [
            116.36666666666666,
            39.94761763802122
          ],
          [
            116.36611391302476,
            39.94827586206897
          ],
          [
            116.36586628176074,
            39.95172413793103
          ],
          [
            116.36666666666666,
            39.95265672785174
          ],
          [
            116.36950284075616,
            39.9551724137931
          ],
          [
            116.3674546755361,
            39.95862068965517
          ],
          [
            116.36909869263799,
            39.96206896551724
          ],
          [
            116.37047685150763,
            39.96551724137931
          ],
          [
            116.37179487179488,
            39.96672563070577
          ],
          [
            116.37369684524623,
            39.96896551724138
          ],
          [
            116.37692307692308,
            39.97166989804589
          ],
          [
            116.37801331532246,
            39.97241379310345
          ],
          [
            116.38064394647134,
            39.97586206896552
          ],
          [
            116.38205128205128,
            39.9774327604733
          ],
          [
            116.38717948717948,
            39.97895279754454
          ],
          [
            116.3883582336257,
            39.97931034482759
          ],
          [
            116.3923076923077,
            39.98037152248334
          ],
          [
            116.3974358974359,
            39.98189520575104
          ],
          [
            116.39918695050635,
            39.98275862068966
          ],
          [
            116.4025641025641,
            39.98391218813417
          ],
          [
            116.4076923076923,
            39.98282476921303
          ],
          [
            116.41113902456638,
            39.97931034482759
          ],
          [
            116.41282051282052,
            39.97849750288593
          ],
          [
            116.41794871794872,
            39.977355316529156
          ],
          [
            116.42207256310041,
            39.97586206896552
          ],
          [
            116.42216735108344,
            39.97241379310345
          ],
          [
            116.42307692307692,
            39.97161622381286
          ],
          [
            116.42820512820512,
            39.968978116784406
          ],
          [
            116.42662550131195,
            39.96551724137931
          ],
          [
            116.42820512820512,
            39.963816338266156
          ],
          [
            116.43107927339447,
            39.96206896551724
          ],
          [
            116.43333333333334,
            39.95926314424298
          ],
          [
            116.43363268970765,
            39.95862068965517
          ],
          [
            116.43333333333334,
            39.95823932925247
          ],
          [
            116.43156219264709,
            39.9551724137931
          ],
          [
            116.43333333333334,
            39.952736520109355
          ],
          [
            116.43450913821252,
            39.95172413793103
          ],
          [
            116.43333333333334,
            39.95055031241676
          ],
          [
            116.43087661855319,
            39.94827586206897
          ],
          [
            116.43304457603843,
            39.9448275862069
          ],
          [
            116.43297236282699,
            39.94137931034483
          ],
          [
            116.43100111271025,
            39.93793103448276
          ],
          [
            116.42827090871126,
            39.93441413965647
          ],
          [
            116.42478537682241,
            39.93103448275862
          ],
          [
            116.42307692307692,
            39.92939470887798
          ],
          [
            116.42175626488621,
            39.92758620689655
          ],
          [
            116.42291304975042,
            39.92413793103448
          ],
          [
            116.41794871794872,
            39.920828197752456
          ],
          [
            116.41282051282052,
            39.92092417007903
          ],
          [
            116.4104980256352,
            39.92068965517241
          ],
          [
            116.4076923076923,
            39.920322899082464
          ],
          [
            116.4025641025641,
            39.91733975593679
          ],
          [
            116.3974358974359,
            39.918719103029204
          ],
          [
            116.3923076923077,
            39.920639544212264
          ],
          [
            116.38717948717948,
            39.919620873050306
          ]
        ]
      }
    },
    {
      "type": "Feature",
      "properties": {
        "elevation": 80,
        "level": 80,
        "levelIndex": 8,
        "pathIndex": 0,
        "type": "linestring",
        "closed": true
      },
      "geometry": {
        "type": "LineString",
        "coordinates": [
          [
            116.3923076923077,
            39.926889870931134
          ],
          [
            116.39038027973422,
            39.92758620689655
          ],
          [
            116.39029926551058,
            39.93103448275862
          ],
          [
            116.38717948717948,
            39.932371438669065
          ],
          [
            116.38528895630822,
            39.93448275862069
          ],
          [
            116.38205128205128,
            39.93723849301827
          ],
          [
            116.38071809994264,
            39.93793103448276
          ],
          [
            116.37908762581623,
            39.94137931034483
          ],
          [
            116.37692307692308,
            39.94462745136106
          ],
          [
            116.37675053647776,
            39.9448275862069
          ],
          [
            116.37692307692308,
            39.945089734621625
          ],
          [
            116.37865647104536,
            39.94827586206897
          ],
          [
            116.37960220304771,
            39.95172413793103
          ],
          [
            116.38020104177751,
            39.9551724137931
          ],
          [
            116.37910736132329,
            39.95862068965517
          ],
          [
            116.3801896917148,
            39.96206896551724
          ],
          [
            116.38205128205128,
            39.96530108037898
          ],
          [
            116.38257654445249,
            39.96551724137931
          ],
          [
            116.38717948717948,
            39.966862205877064
          ],
          [
            116.39073266023688,
            39.96896551724138
          ],
          [
            116.3923076923077,
            39.970203234626084
          ],
          [
            116.3974358974359,
            39.971065062501836
          ],
          [
            116.4025641025641,
            39.97118515314035
          ],
          [
            116.40584140302475,
            39.97241379310345
          ],
          [
            116.4076923076923,
            39.97294256554849
          ],
          [
            116.40982026576629,
            39.97241379310345
          ],
          [
            116.41282051282052,
            39.970952562452695
          ],
          [
            116.41431910621824,
            39.96896551724138
          ],
          [
            116.41546512460121,
            39.96551724137931
          ],
          [
            116.41687319345263,
            39.96206896551724
          ],
          [
            116.41794871794872,
            39.96056727997946
          ],
          [
            116.41960475482313,
            39.95862068965517
          ],
          [
            116.42021759108073,
            39.9551724137931
          ],
          [
            116.42290971591544,
            39.95172413793103
          ],
          [
            116.42307692307692,
            39.95125324348865
          ],
          [
            116.423663137077,
            39.94827586206897
          ],
          [
            116.42352221070192,
            39.9448275862069
          ],
          [
            116.42307692307692,
            39.94407836774644
          ],
          [
            116.42171806224422,
            39.94137931034483
          ],
          [
            116.41937526227719,
            39.93793103448276
          ],
          [
            116.41794871794872,
            39.93654084792967
          ],
          [
            116.41423012086642,
            39.93448275862069
          ],
          [
            116.41285659362967,
            39.930978715819364
          ],
          [
            116.4076923076923,
            39.927896372843975
          ],
          [
            116.4025641025641,
            39.92775228802616
          ],
          [
            116.40216397840314,
            39.92758620689655
          ],
          [
            116.3974358974359,
            39.92516695272479
          ],
          [
            116.3923076923077,
            39.926889870931134
          ]
        ]
      }
    },
    {
      "type": "Feature",
      "properties": {
        "elevation": 90,
        "level": 90,
        "levelIndex": 9,
        "pathIndex": 0,
        "type": "linestring",
        "closed": true
      },
      "geometry": {
        "type": "LineString",
        "coordinates": [
          [
            116.3974358974359,
            39.936225756930455
          ],
          [
            116.39439959521887,
            39.93793103448276
          ],
          [
            116.3923076923077,
            39.94040980561512
          ],
          [
            116.39146258607896,
            39.94137931034483
          ],
          [
            116.38808247583415,
            39.9448275862069
          ],
          [
            116.38717948717948,
            39.94614850718658
          ],
          [
            116.38602157685956,
            39.94827586206897
          ],
          [
            116.3864228461074,
            39.95172413793103
          ],
          [
            116.38717948717948,
            39.95282833007164
          ],
          [
            116.390322279723,
            39.9551724137931
          ],
          [
            116.38976622967357,
            39.95862068965517
          ],
          [
            116.3923076923077,
            39.96013487974166
          ],
          [
            116.3974344654152,
            39.96206896551724
          ],
          [
            116.4025641025641,
            39.962941376261384
          ],
          [
            116.40536098222105,
            39.96206896551724
          ],
          [
            116.4076923076923,
            39.960462206804564
          ],
          [
            116.4100368247198,
            39.95862068965517
          ],
          [
            116.41126499555844,
            39.9551724137931
          ],
          [
            116.41134927335834,
            39.95172413793103
          ],
          [
            116.410148920356,
            39.94827586206897
          ],
          [
            116.41282051282052,
            39.94576038665864
          ],
          [
            116.41383031400201,
            39.9448275862069
          ],
          [
            116.41282051282052,
            39.94332080552303
          ],
          [
            116.41077084594468,
            39.94137931034483
          ],
          [
            116.4076923076923,
            39.93997979649836
          ],
          [
            116.4025641025641,
            39.93872979772378
          ],
          [
            116.40052012264658,
            39.93793103448276
          ],
          [
            116.3974358974359,
            39.936225756930455
          ]
        ]
      }
    },
    {
      "type": "Feature",
      "properties": {
        "elevation": 100,
        "level": 100,
        "levelIndex": 10,
        "pathIndex": 0,
        "type": "linestring",
        "closed": true
      },
      "geometry": {
        "type": "LineString",
        "coordinates": [
          [
            116.4025641025641,
            39.950461728227715
          ],
          [
            116.40043752113276,
            39.95172413793103
          ],
          [
            116.4025641025641,
            39.95309403084815
          ],
          [
            116.40341818580211,
            39.95172413793103
          ],
          [
            116.4025641025641,
            39.950461728227715
          ]
        ]
      }
    }
  ]
}